{"type":"FeatureCollection","name":"jp_eez_claims","source":"Flanders Marine Institute (2023). Maritime Boundaries Geodatabase: Maritime Boundaries and Exclusive Economic Zones (200NM), version 12. https://www.marineregions.org/ https://doi.org/10.14284/632","license":"CC BY 4.0","note":"Japan EEZ incl. all overlapping claims and joint regime areas (safe-side blanking). Vertices thinned to every 16th on rings >64 vertices; rings smaller than 0.25 deg dropped (the 0.25 deg ECMWF grid cannot resolve them and the mask is dilated by one cell anyway). Retrieved 2026-10-09 via WFS (MarineRegions:eez, sovereign1/2/3='Japan').","features":[{"type":"Feature","properties":{"mrgid":8487,"geoname":"Japanese Exclusive Economic Zone","pol_type":"200NM","sovereigns":["Japan"],"area_km2":4066513},"geometry":{"type":"MultiPolygon","coordinates":[[[[157.638,24.3],[157.637,24.251],[157.635,24.188],[157.631,24.115],[157.625,24.044],[157.617,23.971],[157.608,23.899],[157.597,23.826],[157.584,23.754],[157.571,23.688],[157.561,23.643],[157.545,23.576],[157.527,23.505],[157.507,23.434],[157.485,23.364],[157.462,23.294],[157.436,23.225],[157.41,23.156],[157.392,23.113],[157.367,23.054],[157.336,22.987],[157.304,22.92],[157.271,22.854],[157.235,22.789],[157.199,22.725],[157.161,22.661],[157.132,22.615],[157.101,22.567],[157.067,22.516],[157.029,22.462],[156.99,22.408],[156.949,22.354],[156.908,22.302],[156.865,22.25],[156.821,22.199],[156.788,22.161],[156.769,22.14],[156.743,22.112],[156.7,22.067],[156.647,22.013],[156.593,21.96],[156.538,21.909],[156.481,21.858],[156.424,21.809],[156.365,21.761],[156.309,21.717],[156.271,21.687],[156.214,21.645],[156.151,21.601],[156.088,21.559],[156.024,21.517],[155.959,21.477],[155.893,21.438],[155.836,21.407],[155.785,21.379],[155.744,21.358],[155.659,21.315],[155.595,21.285],[155.543,21.262],[155.502,21.244],[155.472,21.231],[155.43,21.214],[155.401,21.202],[155.359,21.186],[155.329,21.175],[155.286,21.159],[155.256,21.148],[155.217,21.135],[155.187,21.125],[155.147,21.112],[155.116,21.102],[155.077,21.091],[155.044,21.081],[155.006,21.071],[154.972,21.062],[154.935,21.052],[154.9,21.043],[154.864,21.035],[154.827,21.026],[154.792,21.019],[154.754,21.011],[154.72,21.004],[154.679,20.996],[154.648,20.991],[154.615,20.985],[154.581,20.98],[154.511,20.969],[154.434,20.96],[154.357,20.952],[154.279,20.945],[154.202,20.94],[154.118,20.936],[154.051,20.934],[154.001,20.934],[153.932,20.934],[153.854,20.936],[153.777,20.939],[153.699,20.944],[153.622,20.951],[153.544,20.959],[153.467,20.968],[153.393,20.979],[153.355,20.985],[153.311,20.993],[153.282,20.998],[153.257,21.002],[153.215,21.011],[153.186,21.017],[153.144,21.026],[153.117,21.032],[153.078,21.041],[153.053,21.047],[153.002,21.06],[152.907,21.086],[152.844,21.105],[152.783,21.124],[152.743,21.138],[152.68,21.159],[152.634,21.176],[152.591,21.192],[152.532,21.215],[152.474,21.239],[152.417,21.264],[152.36,21.29],[152.303,21.316],[152.247,21.344],[152.197,21.37],[152.16,21.389],[152.097,21.424],[152.031,21.462],[151.965,21.501],[151.9,21.542],[151.837,21.584],[151.774,21.627],[151.712,21.672],[151.662,21.709],[151.621,21.741],[151.562,21.789],[151.504,21.837],[151.447,21.887],[151.391,21.938],[151.341,21.985],[151.289,22.037],[151.238,22.09],[151.203,22.127],[151.164,22.17],[151.114,22.227],[151.066,22.284],[151.02,22.343],[150.974,22.402],[150.93,22.463],[150.887,22.524],[150.852,22.577],[150.825,22.618],[150.795,22.666],[150.757,22.73],[150.721,22.795],[150.686,22.86],[150.652,22.926],[150.62,22.993],[150.589,23.06],[150.564,23.119],[150.547,23.162],[150.52,23.231],[150.495,23.3],[150.472,23.37],[150.45,23.44],[150.43,23.511],[150.411,23.582],[150.396,23.648],[150.384,23.705],[150.373,23.76],[150.36,23.833],[150.349,23.905],[150.34,23.977],[150.333,24.05],[150.327,24.123],[150.323,24.196],[150.321,24.259],[150.32,24.323],[150.321,24.396],[150.323,24.469],[150.327,24.542],[150.333,24.615],[150.341,24.687],[150.35,24.76],[150.36,24.823],[150.369,24.873],[150.382,24.94],[150.397,25.012],[150.413,25.076],[150.434,25.157],[150.455,25.228],[150.477,25.298],[150.501,25.366],[150.519,25.415],[150.541,25.471],[150.569,25.539],[150.599,25.607],[150.631,25.674],[150.664,25.74],[150.699,25.806],[150.736,25.871],[150.768,25.926],[150.793,25.966],[150.832,26.027],[150.874,26.089],[150.918,26.151],[150.963,26.211],[151.009,26.271],[151.057,26.33],[151.106,26.387],[151.14,26.424],[151.175,26.463],[151.206,26.496],[151.236,26.527],[151.274,26.565],[151.317,26.608],[151.362,26.65],[151.407,26.691],[151.453,26.731],[151.5,26.771],[151.547,26.81],[151.589,26.843],[151.629,26.874],[151.692,26.92],[151.756,26.965],[151.821,27.009],[151.887,27.052],[151.954,27.093],[152.022,27.133],[152.089,27.17],[152.135,27.194],[152.194,27.225],[152.265,27.26],[152.338,27.293],[152.411,27.326],[152.485,27.356],[152.56,27.385],[152.633,27.412],[152.685,27.43],[152.729,27.445],[152.802,27.468],[152.88,27.491],[152.958,27.512],[153.037,27.532],[153.116,27.55],[153.196,27.567],[153.276,27.582],[153.332,27.591],[153.364,27.596],[153.445,27.608],[153.526,27.618],[153.608,27.626],[153.689,27.633],[153.771,27.638],[153.853,27.641],[153.934,27.643],[153.984,27.643],[154.017,27.643],[154.099,27.642],[154.181,27.639],[154.263,27.634],[154.344,27.627],[154.425,27.619],[154.507,27.61],[154.588,27.599],[154.635,27.591],[154.69,27.582],[154.77,27.567],[154.85,27.551],[154.929,27.532],[155.008,27.513],[155.086,27.491],[155.164,27.469],[155.238,27.445],[155.274,27.433],[155.335,27.412],[155.41,27.385],[155.485,27.355],[155.559,27.325],[155.632,27.293],[155.705,27.259],[155.776,27.224],[155.834,27.194],[155.881,27.169],[155.949,27.131],[156.017,27.091],[156.085,27.05],[156.146,27.01],[156.216,26.963],[156.28,26.918],[156.352,26.864],[156.392,26.833],[156.461,26.777],[156.52,26.727],[156.578,26.676],[156.634,26.623],[156.689,26.57],[156.743,26.515],[156.795,26.46],[156.825,26.427],[156.85,26.4],[156.87,26.376],[156.914,26.324],[156.959,26.268],[157.002,26.212],[157.045,26.155],[157.086,26.097],[157.125,26.038],[157.163,25.978],[157.187,25.939],[157.22,25.885],[157.256,25.82],[157.291,25.754],[157.325,25.687],[157.356,25.62],[157.386,25.553],[157.415,25.484],[157.437,25.428],[157.455,25.379],[157.478,25.312],[157.501,25.242],[157.522,25.171],[157.541,25.1],[157.558,25.029],[157.574,24.957],[157.586,24.893],[157.596,24.837],[157.607,24.764],[157.617,24.688],[157.625,24.612],[157.636,24.409],[157.638,24.302],[157.638,24.3]]],[[[141.077,45.874],[141.648,45.812],[141.991,45.712],[143.268,45.397],[145.025,45.56],[145.644,44.382],[145.533,44.149],[145.439,44.053],[145.287,43.916],[145.273,43.723],[145.459,43.596],[145.818,43.428],[145.855,43.365],[145.876,43.316],[145.929,43.184],[147.253,41.177],[147.819,40.305],[147.75,40.275],[147.701,40.255],[147.669,40.242],[147.63,40.226],[147.6,40.214],[147.566,40.201],[147.532,40.187],[147.498,40.175],[147.462,40.162],[147.436,40.152],[147.411,40.143],[147.388,40.136],[147.35,40.122],[147.319,40.112],[147.302,40.106],[147.279,40.099],[147.263,40.093],[147.241,40.086],[147.227,40.081],[147.208,40.075],[147.189,40.069],[147.166,40.061],[147.143,40.053],[147.122,40.046],[147.091,40.036],[147.053,40.023],[147.04,40.019],[147.026,40.014],[147.012,40.01],[146.998,40.005],[146.984,40.0],[146.97,39.996],[146.946,39.988],[146.921,39.979],[146.899,39.972],[146.885,39.967],[146.871,39.963],[146.858,39.958],[146.839,39.952],[146.792,39.936],[146.751,39.903],[146.706,39.86],[146.651,39.81],[146.62,39.782],[146.57,39.738],[146.516,39.693],[146.451,39.64],[146.386,39.589],[146.384,39.523],[146.38,39.454],[146.376,39.401],[146.373,39.362],[146.368,39.32],[146.363,39.278],[146.357,39.24],[146.35,39.195],[146.344,39.16],[146.336,39.117],[146.331,39.092],[146.327,39.071],[146.324,39.057],[146.321,39.042],[146.317,39.022],[146.298,38.935],[146.276,38.848],[146.258,38.787],[146.23,38.698],[146.198,38.606],[146.163,38.515],[146.136,38.452],[146.128,38.433],[146.122,38.419],[146.116,38.406],[146.11,38.392],[146.104,38.379],[146.098,38.365],[146.092,38.351],[146.086,38.338],[146.08,38.324],[146.066,38.293],[146.059,38.276],[146.051,38.259],[146.044,38.242],[146.032,38.217],[146.013,38.172],[146.007,38.158],[146.001,38.145],[145.995,38.131],[145.989,38.118],[145.983,38.104],[145.977,38.091],[145.971,38.077],[145.957,38.045],[145.947,38.023],[145.941,38.01],[145.935,37.996],[145.928,37.983],[145.922,37.969],[145.916,37.956],[145.91,37.942],[145.901,37.924],[145.893,37.905],[145.885,37.889],[145.879,37.875],[145.872,37.862],[145.864,37.844],[145.855,37.825],[145.844,37.801],[145.832,37.774],[145.826,37.761],[145.82,37.747],[145.813,37.734],[145.807,37.72],[145.801,37.707],[145.795,37.693],[145.789,37.68],[145.782,37.667],[145.776,37.653],[145.77,37.64],[145.764,37.626],[145.757,37.613],[145.751,37.599],[145.742,37.579],[145.73,37.553],[145.724,37.54],[145.718,37.526],[145.711,37.513],[145.705,37.499],[145.69,37.467],[145.675,37.435],[145.666,37.415],[145.66,37.402],[145.654,37.388],[145.648,37.375],[145.642,37.361],[145.635,37.348],[145.629,37.334],[145.623,37.321],[145.617,37.307],[145.611,37.294],[145.604,37.28],[145.598,37.267],[145.589,37.247],[145.575,37.217],[145.569,37.203],[145.563,37.19],[145.545,37.153],[145.523,37.107],[145.492,37.047],[145.457,36.981],[145.419,36.915],[145.379,36.849],[145.329,36.771],[145.292,36.715],[145.246,36.651],[145.219,36.614],[145.191,36.577],[145.174,36.555],[145.155,36.53],[145.127,36.495],[145.097,36.46],[145.066,36.411],[145.054,36.366],[145.037,36.302],[145.017,36.236],[144.995,36.17],[144.972,36.104],[144.969,36.047],[144.974,35.974],[144.978,35.901],[144.98,35.828],[144.98,35.756],[144.978,35.708],[144.976,35.649],[144.972,35.59],[144.967,35.53],[144.96,35.471],[144.952,35.412],[144.943,35.353],[144.933,35.294],[144.921,35.235],[144.912,35.194],[144.904,35.156],[144.89,35.103],[144.872,35.033],[144.85,34.963],[144.827,34.892],[144.803,34.822],[144.776,34.753],[144.748,34.684],[144.718,34.617],[144.697,34.571],[144.679,34.533],[144.653,34.479],[144.62,34.414],[144.584,34.348],[144.546,34.282],[144.507,34.217],[144.466,34.153],[144.423,34.089],[144.38,34.027],[144.354,33.991],[144.311,33.935],[144.263,33.874],[144.214,33.814],[144.163,33.755],[144.11,33.696],[144.056,33.639],[144.001,33.583],[143.959,33.542],[143.914,33.499],[143.867,33.456],[143.819,33.413],[143.824,33.34],[143.828,33.267],[143.83,33.19],[143.83,33.117],[143.829,33.067],[143.827,33.009],[143.824,32.955],[143.818,32.883],[143.81,32.81],[143.801,32.738],[143.789,32.665],[143.775,32.59],[143.775,32.542],[143.78,32.518],[143.789,32.475],[143.797,32.429],[143.816,32.369],[143.837,32.299],[143.857,32.228],[143.875,32.156],[143.891,32.085],[143.903,32.022],[143.911,31.977],[143.921,31.913],[143.926,31.882],[143.931,31.842],[143.938,31.779],[143.943,31.715],[143.958,31.646],[143.978,31.594],[144.002,31.53],[144.027,31.46],[144.049,31.39],[144.07,31.319],[144.089,31.248],[144.106,31.176],[144.123,31.093],[144.151,30.915],[144.173,30.646],[144.268,30.473],[144.495,30.324],[144.614,30.236],[144.697,30.169],[144.758,30.118],[144.816,30.066],[144.865,30.022],[144.912,29.978],[144.959,29.933],[145.0,29.892],[145.021,29.87],[145.061,29.828],[145.116,29.768],[145.159,29.718],[145.23,29.633],[145.288,29.557],[145.324,29.508],[145.351,29.471],[145.411,29.381],[145.45,29.321],[145.488,29.259],[145.53,29.19],[145.576,29.108],[145.62,29.024],[145.655,28.951],[145.675,28.908],[145.707,28.834],[145.74,28.755],[145.761,28.698],[145.785,28.63],[145.805,28.568],[145.827,28.498],[145.846,28.426],[145.86,28.371],[145.871,28.326],[145.887,28.251],[145.903,28.18],[145.918,28.109],[145.929,28.048],[145.937,27.995],[145.948,27.923],[145.956,27.85],[145.963,27.778],[145.968,27.705],[145.971,27.632],[145.972,27.559],[145.971,27.489],[145.973,27.431],[145.979,27.358],[145.984,27.285],[145.986,27.212],[145.987,27.14],[145.986,27.072],[145.985,27.019],[145.981,26.948],[145.975,26.875],[145.968,26.803],[145.959,26.73],[145.96,26.66],[145.96,26.586],[145.959,26.534],[145.956,26.468],[145.952,26.395],[145.946,26.323],[145.938,26.25],[145.928,26.178],[145.916,26.106],[145.903,26.034],[145.889,25.965],[145.877,25.913],[145.86,25.842],[145.84,25.772],[145.819,25.701],[145.796,25.631],[145.773,25.565],[145.747,25.496],[145.72,25.428],[145.695,25.369],[145.666,25.306],[145.634,25.239],[145.601,25.173],[145.565,25.107],[145.529,25.042],[145.491,24.978],[145.451,24.915],[145.425,24.875],[145.389,24.821],[145.346,24.76],[145.301,24.699],[145.255,24.64],[145.207,24.581],[145.159,24.523],[145.118,24.474],[145.121,24.403],[145.123,24.331],[145.124,24.267],[145.123,24.221],[145.122,24.191],[145.12,24.143],[145.117,24.08],[145.112,24.017],[145.106,23.954],[145.099,23.896],[141.29,20.881],[141.213,20.885],[141.135,20.891],[141.058,20.898],[140.981,20.907],[140.904,20.918],[140.847,20.926],[140.813,20.932],[140.739,20.945],[140.663,20.96],[140.588,20.977],[140.512,20.995],[140.438,21.015],[140.363,21.036],[140.289,21.059],[140.235,21.076],[140.196,21.089],[140.135,21.111],[140.074,21.134],[140.014,21.158],[139.953,21.183],[139.894,21.209],[139.836,21.235],[139.781,21.261],[139.753,21.275],[139.702,21.301],[139.655,21.325],[139.608,21.351],[139.541,21.388],[139.537,21.35],[139.557,21.28],[139.575,21.21],[139.591,21.139],[139.606,21.068],[139.616,21.015],[139.625,20.958],[139.635,20.893],[139.644,20.82],[139.652,20.748],[139.658,20.675],[139.662,20.602],[139.664,20.529],[139.665,20.456],[139.664,20.414],[139.664,20.382],[139.663,20.356],[139.661,20.304],[139.656,20.234],[139.651,20.164],[139.643,20.094],[139.635,20.027],[139.625,19.957],[139.613,19.888],[139.602,19.832],[139.593,19.788],[139.578,19.721],[139.56,19.65],[139.541,19.58],[139.52,19.509],[139.497,19.439],[139.473,19.37],[139.448,19.301],[139.431,19.26],[139.408,19.202],[139.378,19.135],[139.347,19.068],[139.315,19.002],[139.281,18.937],[139.245,18.871],[139.209,18.809],[139.172,18.747],[139.146,18.705],[139.108,18.647],[139.056,18.572],[139.027,18.531],[139.014,18.514],[138.991,18.484],[138.971,18.457],[138.947,18.426],[138.927,18.4],[138.901,18.368],[138.879,18.343],[138.853,18.312],[138.831,18.287],[138.807,18.26],[138.787,18.238],[138.756,18.204],[138.725,18.172],[138.688,18.134],[138.631,18.077],[138.583,18.032],[138.507,17.963],[138.436,17.903],[138.4,17.873],[138.372,17.851],[138.349,17.832],[138.315,17.806],[138.289,17.787],[138.255,17.761],[138.229,17.742],[138.193,17.717],[138.167,17.699],[138.131,17.675],[138.105,17.657],[138.068,17.634],[138.041,17.617],[138.004,17.594],[137.977,17.578],[137.94,17.556],[137.912,17.54],[137.875,17.519],[137.851,17.506],[137.823,17.491],[137.784,17.471],[137.756,17.457],[137.717,17.437],[137.688,17.423],[137.649,17.405],[137.619,17.391],[137.555,17.363],[137.467,17.326],[137.396,17.299],[137.325,17.273],[137.293,17.262],[137.239,17.244],[137.167,17.221],[137.094,17.2],[137.021,17.181],[136.955,17.164],[136.883,17.148],[136.819,17.135],[136.732,17.119],[136.649,17.106],[136.585,17.097],[136.532,17.09],[136.481,17.084],[136.425,17.079],[136.35,17.073],[136.301,17.07],[136.255,17.068],[136.197,17.066],[136.134,17.065],[136.102,17.065],[136.05,17.065],[136.019,17.066],[135.997,17.067],[135.967,17.068],[135.936,17.069],[135.911,17.07],[135.874,17.072],[135.85,17.074],[135.792,17.078],[135.721,17.085],[135.648,17.093],[135.566,17.104],[135.466,17.12],[135.371,17.138],[135.264,17.16],[135.188,17.178],[135.108,17.199],[135.036,17.219],[134.951,17.245],[134.888,17.266],[134.85,17.279],[134.786,17.302],[134.716,17.329],[134.646,17.357],[134.576,17.387],[134.508,17.418],[134.44,17.451],[134.372,17.485],[134.321,17.513],[134.278,17.536],[134.212,17.574],[134.148,17.612],[134.084,17.652],[134.021,17.694],[133.96,17.736],[133.899,17.78],[133.839,17.825],[133.8,17.856],[133.752,17.894],[133.695,17.942],[133.638,17.992],[133.583,18.042],[133.529,18.094],[133.476,18.147],[133.425,18.2],[133.39,18.237],[133.359,18.271],[133.314,18.324],[133.266,18.381],[133.22,18.439],[133.174,18.498],[133.131,18.557],[133.088,18.618],[133.047,18.68],[133.014,18.732],[132.989,18.772],[132.951,18.836],[132.915,18.9],[132.88,18.965],[132.847,19.031],[132.815,19.097],[132.785,19.164],[132.758,19.228],[132.74,19.271],[132.718,19.328],[132.693,19.397],[132.67,19.466],[132.648,19.536],[132.628,19.607],[132.609,19.678],[132.592,19.749],[132.579,19.809],[132.569,19.855],[132.556,19.926],[132.545,19.999],[132.535,20.071],[132.527,20.144],[132.521,20.216],[132.516,20.289],[132.513,20.36],[132.512,20.402],[132.512,20.428],[132.512,20.488],[132.513,20.559],[132.516,20.629],[132.521,20.699],[132.527,20.769],[132.534,20.839],[132.544,20.91],[132.557,20.995],[132.571,21.068],[132.586,21.14],[132.603,21.211],[132.62,21.279],[132.64,21.349],[132.641,21.396],[132.611,21.384],[132.57,21.368],[132.538,21.356],[132.497,21.341],[132.466,21.33],[132.426,21.317],[132.403,21.309],[132.368,21.297],[132.337,21.288],[132.302,21.277],[132.269,21.267],[132.236,21.258],[132.2,21.248],[132.17,21.24],[132.134,21.231],[132.106,21.224],[132.067,21.215],[132.036,21.208],[132.0,21.2],[131.966,21.193],[131.932,21.186],[131.896,21.179],[131.858,21.172],[131.808,21.164],[131.758,21.156],[131.67,21.144],[131.593,21.135],[131.516,21.128],[131.438,21.122],[131.352,21.118],[131.29,21.116],[131.242,21.115],[131.175,21.114],[131.131,21.115],[131.098,21.115],[131.062,21.116],[131.026,21.118],[130.992,21.119],[130.955,21.121],[130.923,21.123],[130.883,21.126],[130.855,21.129],[130.818,21.132],[130.787,21.135],[130.75,21.139],[130.716,21.143],[130.682,21.148],[130.652,21.152],[130.602,21.159],[130.546,21.168],[130.446,21.186],[130.37,21.201],[130.294,21.218],[130.219,21.237],[130.144,21.257],[130.07,21.279],[129.99,21.304],[129.944,21.319],[129.878,21.342],[129.82,21.363],[129.79,21.375],[129.719,21.403],[129.616,21.447],[129.514,21.494],[129.423,21.54],[129.375,21.565],[129.316,21.597],[129.249,21.635],[129.183,21.675],[129.118,21.715],[129.054,21.757],[128.991,21.8],[128.929,21.845],[128.879,21.882],[128.838,21.914],[128.779,21.961],[128.721,22.01],[128.666,22.057],[128.642,22.078],[128.606,22.112],[128.551,22.164],[128.494,22.22],[128.416,22.302],[128.373,22.349],[128.32,22.41],[128.272,22.467],[128.225,22.526],[128.186,22.497],[128.133,22.444],[128.079,22.391],[128.023,22.34],[127.966,22.289],[127.908,22.24],[127.849,22.192],[127.798,22.152],[127.757,22.121],[127.697,22.078],[127.634,22.034],[127.571,21.991],[127.506,21.95],[127.441,21.91],[127.374,21.871],[127.307,21.834],[127.267,21.813],[127.213,21.785],[127.144,21.751],[127.074,21.718],[127.004,21.687],[126.933,21.657],[126.861,21.629],[126.788,21.602],[126.719,21.578],[126.677,21.563],[126.612,21.543],[126.538,21.521],[126.463,21.5],[126.387,21.481],[126.312,21.464],[126.236,21.448],[126.159,21.433],[126.103,21.424],[126.068,21.418],[126.004,21.395],[125.941,21.352],[125.877,21.31],[125.813,21.269],[125.747,21.229],[125.681,21.191],[125.615,21.155],[125.582,21.137],[123.516,22.28],[122.995,22.878],[122.57,23.623],[122.392,24.383],[122.501,24.76],[122.699,25.046],[123.647,25.094],[124.697,25.359],[125.116,28.52],[125.924,29.619],[128.233,31.783],[128.88,34.3],[129.678,35.068],[132.01,36.862],[133.953,39.818],[136.232,41.257],[136.951,42.286],[137.605,43.212],[138.007,43.596],[138.934,44.521],[139.173,44.988],[139.303,45.42],[139.358,45.535],[139.777,46.089],[141.077,45.874]],[[141.937,45.523],[141.874,45.464],[141.792,45.406],[141.72,45.397],[141.685,45.41],[141.68,45.415],[141.658,45.44],[141.651,45.344],[141.57,45.213],[141.729,44.905],[141.744,44.969],[141.838,44.993],[141.889,44.926],[141.984,44.917],[142.056,44.863],[142.067,44.776],[142.082,44.733],[142.168,44.725],[142.263,44.718],[142.167,44.725],[142.109,44.73],[142.06,44.778],[142.062,44.859],[141.987,44.917],[141.909,44.911],[141.865,44.976],[141.748,44.97],[141.75,44.848],[141.788,44.588],[141.756,44.449],[141.689,44.36],[141.653,44.316],[141.671,44.28],[141.66,44.102],[141.654,43.999],[141.647,43.945],[141.628,43.921],[141.558,43.858],[141.52,43.859],[141.395,43.808],[141.361,43.761],[141.346,43.673],[141.377,43.558],[141.39,43.478],[141.425,43.364],[141.367,43.253],[141.435,43.165],[141.617,43.146],[141.654,43.294],[141.664,43.233],[141.571,43.113],[141.39,43.204],[141.361,43.251],[141.3,43.215],[141.295,43.212],[141.276,43.201],[141.128,43.155],[141.031,43.184],[141.008,43.197],[141.018,43.219],[140.989,43.24],[140.918,43.223],[140.878,43.206],[140.854,43.21],[140.79,43.201],[140.759,43.227],[140.728,43.242],[140.637,43.274],[140.604,43.303],[140.528,43.353],[140.473,43.373],[140.422,43.33],[140.355,43.307],[140.336,43.255],[140.339,43.21],[140.422,43.143],[140.458,43.106],[140.504,43.046],[140.52,42.997],[140.447,42.953],[140.376,42.894],[140.396,42.845],[140.401,42.838],[140.327,42.845],[140.305,42.778],[140.238,42.793],[140.178,42.815],[140.134,42.75],[140.08,42.729],[140.025,42.688],[139.955,42.689],[139.863,42.655],[139.823,42.598],[139.836,42.548],[139.847,42.489],[139.822,42.389],[139.788,42.354],[139.774,42.299],[139.777,42.266],[139.825,42.224],[139.88,42.2],[139.907,42.158],[139.999,42.122],[140.068,42.063],[140.1,42.028],[140.13,41.978],[140.131,41.872],[140.12,41.865],[140.089,41.807],[140.028,41.715],[139.997,41.649],[139.984,41.579],[140.002,41.531],[140.036,41.455],[140.107,41.426],[140.17,41.414],[140.239,41.45],[140.269,41.484],[140.337,41.507],[140.399,41.519],[140.428,41.583],[140.473,41.697],[140.553,41.721],[140.613,41.776],[140.696,41.818],[140.718,41.795],[140.711,41.771],[140.705,41.74],[140.841,41.761],[140.958,41.712],[141.028,41.718],[141.067,41.737],[141.106,41.783],[141.185,41.806],[141.145,41.836],[141.086,41.881],[141.023,41.891],[140.95,41.936],[140.909,41.983],[140.821,42.035],[140.773,42.086],[140.69,42.126],[140.568,42.111],[140.458,42.176],[140.393,42.22],[140.297,42.243],[140.316,42.42],[140.466,42.585],[140.534,42.589],[140.621,42.579],[140.711,42.574],[140.774,42.519],[140.789,42.502],[140.861,42.466],[140.937,42.367],[140.986,42.353],[140.984,42.327],[140.969,42.334],[140.943,42.342],[140.954,42.317],[140.982,42.307],[141.031,42.337],[141.076,42.382],[141.188,42.452],[141.342,42.539],[141.594,42.624],[141.624,42.637],[141.665,42.65],[141.674,42.645],[141.674,42.627],[141.736,42.623],[141.757,42.621],[141.818,42.612],[141.83,42.602],[141.937,42.547],[142.024,42.513],[142.075,42.472],[142.24,42.409],[142.358,42.336],[142.383,42.32],[142.483,42.272],[142.632,42.22],[142.735,42.177],[142.824,42.14],[142.919,42.125],[142.967,42.113],[143.072,42.057],[143.148,42.012],[143.193,41.964],[143.249,41.925],[143.255,41.997],[143.304,42.045],[143.323,42.117],[143.333,42.181],[143.315,42.234],[143.322,42.288],[143.344,42.345],[143.456,42.501],[143.491,42.539],[143.537,42.598],[143.537,42.622],[143.607,42.649],[143.61,42.652],[143.592,42.728],[143.514,42.801],[143.461,42.859],[143.593,42.732],[143.673,42.698],[143.818,42.804],[143.995,42.922],[144.152,42.979],[144.324,43.004],[144.35,42.997],[144.36,42.992],[144.389,42.982],[144.362,42.972],[144.449,42.944],[144.561,42.949],[144.674,42.939],[144.76,42.933],[144.725,42.991],[144.845,43.051],[144.839,43.077],[144.863,43.074],[144.937,43.04],[144.864,43.03],[144.844,43.015],[144.901,42.99],[144.977,42.982],[145.031,43.012],[145.014,43.035],[145.002,43.047],[145.021,43.045],[145.057,43.037],[145.09,43.057],[145.15,43.07],[145.128,43.081],[145.177,43.149],[145.25,43.159],[145.356,43.177],[145.502,43.169],[145.509,43.186],[145.534,43.212],[145.557,43.257],[145.604,43.293],[145.673,43.316],[145.731,43.328],[145.79,43.361],[145.813,43.387],[145.758,43.399],[145.749,43.39],[145.679,43.389],[145.639,43.379],[145.578,43.335],[145.524,43.302],[145.523,43.256],[145.515,43.238],[145.482,43.273],[145.349,43.279],[145.301,43.29],[145.285,43.324],[145.228,43.333],[145.306,43.352],[145.351,43.317],[145.285,43.379],[145.246,43.523],[145.211,43.589],[145.192,43.628],[145.132,43.666],[145.059,43.785],[145.107,43.905],[145.188,44.012],[145.239,44.063],[145.264,44.137],[145.349,44.223],[145.353,44.286],[145.345,44.339],[145.314,44.33],[145.287,44.297],[145.23,44.252],[145.147,44.174],[145.084,44.136],[145.027,44.105],[144.997,44.073],[144.941,44.039],[144.863,43.978],[144.795,43.931],[144.517,43.924],[144.369,43.949],[144.42,43.935],[144.44,43.914],[144.381,43.931],[144.325,43.969],[144.29,44.014],[144.255,44.069],[144.19,44.103],[144.183,44.042],[144.118,44.016],[144.112,44.086],[144.179,44.104],[144.079,44.123],[143.795,44.176],[143.968,44.137],[143.976,44.134],[143.929,44.089],[143.809,44.097],[143.76,44.11],[143.732,44.104],[143.706,44.15],[143.689,44.194],[143.774,44.184],[143.598,44.218],[143.561,44.246],[143.559,44.251],[143.494,44.255],[143.438,44.298],[143.366,44.342],[143.317,44.38],[143.207,44.444],[143.061,44.523],[142.974,44.575],[142.932,44.624],[142.863,44.672],[142.807,44.709],[142.734,44.764],[142.657,44.849],[142.587,44.922],[142.558,44.98],[142.522,45.03],[142.389,45.137],[142.386,45.138],[142.146,45.353],[142.029,45.432],[141.971,45.481],[141.937,45.523]],[[136.822,34.888],[136.837,34.876],[136.855,34.791],[136.911,34.712],[136.974,34.696],[136.963,34.719],[136.927,34.763],[136.92,34.811],[136.926,34.851],[136.945,34.874],[136.964,34.877],[136.97,34.913],[136.984,34.945],[136.976,34.892],[136.954,34.848],[137.01,34.876],[137.006,34.844],[136.998,34.813],[137.027,34.779],[137.104,34.786],[137.165,34.785],[137.19,34.779],[137.194,34.805],[137.223,34.816],[137.255,34.806],[137.276,34.81],[137.316,34.798],[137.337,34.78],[137.375,34.781],[137.321,34.766],[137.359,34.72],[137.314,34.699],[137.293,34.681],[137.261,34.696],[137.221,34.675],[137.129,34.656],[137.108,34.637],[137.081,34.662],[137.016,34.579],[137.185,34.607],[137.461,34.671],[137.584,34.693],[137.529,34.731],[137.515,34.754],[137.548,34.783],[137.569,34.792],[137.569,34.774],[137.616,34.789],[137.652,34.805],[137.626,34.776],[137.606,34.757],[137.626,34.744],[137.632,34.729],[137.642,34.691],[137.599,34.679],[137.749,34.665],[137.795,34.651],[137.895,34.676],[137.902,34.667],[138.063,34.647],[138.233,34.6],[138.213,34.624],[138.222,34.723],[138.302,34.776],[138.319,34.805],[138.327,34.847],[138.346,34.893],[138.401,34.93],[138.511,34.98],[138.516,35.02],[138.501,35.003],[138.499,35.007],[138.497,35.034],[138.512,35.036],[138.555,35.098],[138.689,35.143],[138.853,35.08],[138.88,35.056],[138.898,35.024],[138.867,35.022],[138.79,35.025],[138.773,34.989],[138.763,34.976],[138.781,34.902],[138.759,34.861],[138.766,34.826],[138.757,34.813],[138.752,34.8],[138.763,34.771],[138.76,34.742],[138.743,34.717],[138.776,34.676],[138.775,34.642],[138.813,34.623],[138.85,34.609],[138.887,34.624],[138.894,34.634],[138.925,34.655],[138.951,34.674],[138.961,34.654],[138.973,34.676],[138.992,34.727],[139.029,34.768],[139.066,34.807],[139.098,34.858],[139.141,34.912],[139.129,34.958],[139.094,34.98],[139.09,35.049],[139.082,35.086],[139.097,35.117],[139.157,35.142],[139.146,35.168],[139.174,35.255],[139.317,35.305],[139.366,35.319],[139.374,35.315],[139.48,35.308],[139.551,35.305],[139.57,35.287],[139.575,35.26],[139.608,35.222],[139.599,35.195],[139.617,35.171],[139.616,35.156],[139.611,35.147],[139.638,35.141],[139.668,35.143],[139.666,35.159],[139.723,35.219],[139.716,35.246],[139.731,35.264],[139.674,35.286],[139.647,35.295],[139.644,35.309],[139.631,35.326],[139.654,35.354],[139.645,35.391],[139.641,35.407],[139.681,35.415],[139.678,35.431],[139.66,35.442],[139.649,35.453],[139.642,35.458],[139.641,35.472],[139.649,35.48],[139.668,35.468],[139.687,35.491],[139.719,35.495],[139.738,35.514],[139.751,35.531],[139.719,35.542],[139.785,35.57],[139.739,35.588],[139.762,35.652],[139.807,35.72],[139.791,35.655],[139.782,35.638],[139.807,35.637],[139.843,35.658],[139.8,35.759],[139.818,35.75],[139.855,35.732],[139.843,35.724],[139.872,35.641],[139.897,35.617],[139.939,35.64],[139.939,35.684],[139.95,35.684],[139.985,35.688],[140.002,35.66],[140.071,35.61],[140.108,35.6],[140.105,35.582],[140.091,35.565],[140.112,35.55],[140.098,35.541],[140.08,35.531],[140.056,35.529],[140.032,35.493],[140.019,35.468],[139.992,35.45],[139.955,35.444],[139.951,35.449],[139.901,35.424],[139.901,35.401],[139.899,35.376],[139.896,35.358],[139.847,35.347],[139.836,35.332],[139.834,35.298],[139.861,35.217],[139.818,35.17],[139.837,35.134],[139.829,35.102],[139.833,35.047],[139.859,35.001],[139.815,34.978],[139.757,34.977],[139.771,34.954],[139.837,34.905],[139.898,34.906],[139.942,34.917],[139.967,34.98],[140.023,35.042],[140.084,35.069],[140.101,35.091],[140.157,35.121],[140.196,35.119],[140.235,35.122],[140.262,35.138],[140.278,35.131],[140.297,35.15],[140.333,35.156],[140.385,35.192],[140.405,35.256],[140.409,35.3],[140.387,35.383],[140.454,35.532],[140.488,35.57],[140.625,35.672],[140.725,35.694],[140.847,35.7],[140.867,35.71],[140.861,35.749],[140.831,35.736],[140.71,35.829],[140.582,35.89],[140.465,35.917],[140.302,35.864],[140.283,35.874],[140.445,35.916],[140.609,35.87],[140.718,35.83],[140.847,35.742],[140.841,35.749],[140.726,35.898],[140.699,35.926],[140.662,35.926],[140.701,35.938],[140.625,36.056],[140.565,36.302],[140.577,36.344],[140.584,36.339],[140.627,36.378],[140.619,36.433],[140.621,36.487],[140.629,36.501],[140.653,36.573],[140.699,36.65],[140.733,36.749],[140.791,36.829],[140.794,36.859],[140.806,36.903],[140.845,36.913],[140.875,36.928],[140.894,36.942],[140.915,36.942],[140.953,36.956],[140.972,36.99],[140.976,37.063],[140.998,37.136],[141.012,37.222],[141.013,37.241],[141.031,37.317],[141.036,37.372],[141.037,37.43],[141.041,37.48],[141.026,37.57],[141.024,37.646],[141.01,37.716],[140.985,37.817],[140.984,37.818],[140.967,37.786],[140.963,37.818],[140.962,37.838],[140.929,37.901],[140.898,38.032],[140.904,38.054],[140.873,38.095],[140.814,38.064],[140.803,37.981],[140.796,37.969],[140.809,38.054],[140.877,38.097],[140.924,38.068],[140.964,38.168],[140.949,38.161],[140.938,38.186],[140.961,38.177],[141.007,38.27],[141.052,38.278],[141.08,38.314],[141.048,38.314],[141.034,38.32],[141.046,38.339],[141.055,38.345],[141.082,38.379],[141.11,38.376],[141.132,38.36],[141.142,38.342],[141.14,38.321],[141.156,38.322],[141.177,38.323],[141.164,38.351],[141.172,38.374],[141.173,38.378],[141.245,38.411],[141.273,38.416],[141.305,38.414],[141.321,38.446],[141.296,38.491],[141.227,38.526],[141.278,38.491],[141.303,38.451],[141.313,38.415],[141.357,38.414],[141.419,38.436],[141.401,38.421],[141.373,38.416],[141.409,38.404],[141.425,38.389],[141.433,38.364],[141.436,38.341],[141.474,38.332],[141.469,38.315],[141.496,38.292],[141.525,38.282],[141.532,38.32],[141.521,38.362],[141.488,38.379],[141.527,38.384],[141.512,38.399],[141.48,38.398],[141.455,38.438],[141.49,38.44],[141.512,38.453],[141.494,38.455],[141.491,38.472],[141.49,38.499],[141.492,38.513],[141.516,38.496],[141.538,38.499],[141.54,38.528],[141.532,38.551],[141.486,38.541],[141.473,38.562],[141.457,38.543],[141.459,38.573],[141.412,38.539],[141.313,38.509],[141.302,38.586],[141.289,38.692],[141.277,38.754],[141.269,38.731],[141.285,38.646],[141.307,38.518],[141.426,38.56],[141.495,38.592],[141.526,38.614],[141.497,38.644],[141.446,38.664],[141.464,38.672],[141.491,38.69],[141.524,38.705],[141.555,38.698],[141.566,38.734],[141.541,38.744],[141.521,38.764],[141.555,38.808],[141.604,38.828],[141.595,38.887],[141.588,38.895],[141.624,38.899],[141.647,38.875],[141.671,38.869],[141.664,38.897],[141.645,38.925],[141.64,38.945],[141.634,38.968],[141.627,38.995],[141.68,38.998],[141.672,38.974],[141.696,38.947],[141.715,38.948],[141.708,38.967],[141.711,38.994],[141.742,38.999],[141.718,39.034],[141.738,39.064],[141.736,39.022],[141.764,39.023],[141.796,39.037],[141.843,39.027],[141.819,39.059],[141.858,39.071],[141.815,39.095],[141.849,39.104],[141.89,39.089],[141.901,39.12],[141.848,39.142],[141.878,39.155],[141.891,39.181],[141.866,39.2],[141.894,39.2],[141.931,39.221],[141.947,39.242],[141.938,39.244],[141.892,39.246],[141.905,39.272],[141.915,39.29],[141.907,39.306],[141.972,39.317],[141.967,39.337],[141.905,39.327],[141.909,39.359],[141.967,39.375],[141.943,39.377],[141.977,39.427],[142.011,39.426],[142.04,39.446],[142.061,39.471],[142.002,39.454],[141.958,39.456],[141.98,39.481],[142.029,39.508],[142.031,39.525],[142.053,39.531],[142.059,39.561],[142.035,39.574],[142.03,39.595],[142.032,39.613],[142.028,39.644],[142.012,39.651],[141.966,39.596],[141.963,39.611],[141.969,39.636],[141.972,39.639],[141.98,39.654],[141.973,39.689],[141.983,39.716],[141.984,39.736],[141.988,39.762],[141.984,39.813],[141.978,39.845],[141.972,39.884],[141.943,39.928],[141.962,39.948],[141.948,39.99],[141.904,40.014],[141.871,40.048],[141.834,40.079],[141.866,40.133],[141.84,40.173],[141.803,40.193],[141.797,40.203],[141.826,40.244],[141.795,40.296],[141.764,40.348],[141.733,40.386],[141.701,40.432],[141.66,40.466],[141.62,40.504],[141.582,40.538],[141.556,40.538],[141.53,40.531],[141.53,40.54],[141.512,40.55],[141.493,40.565],[141.46,40.605],[141.441,40.681],[141.412,40.768],[141.394,40.882],[141.371,40.838],[141.357,40.772],[141.308,40.718],[141.287,40.752],[141.312,40.776],[141.316,40.847],[141.324,40.859],[141.352,40.842],[141.381,40.885],[141.395,40.926],[141.386,40.957],[141.385,41.013],[141.396,41.133],[141.403,41.219],[141.446,41.366],[141.458,41.403],[141.462,41.431],[141.406,41.385],[141.24,41.366],[141.173,41.408],[141.127,41.442],[141.021,41.483],[140.923,41.539],[140.909,41.505],[140.878,41.453],[140.836,41.409],[140.813,41.336],[140.803,41.309],[140.78,41.244],[140.771,41.203],[140.769,41.141],[140.807,41.129],[140.893,41.163],[140.98,41.199],[141.074,41.2],[141.139,41.247],[141.186,41.279],[141.276,41.146],[141.243,41.057],[141.139,40.877],[141.092,40.879],[140.998,40.936],[140.982,40.957],[140.901,41.008],[140.86,40.972],[140.857,40.944],[140.859,40.889],[140.816,40.845],[140.723,40.838],[140.665,40.934],[140.634,41.11],[140.612,41.203],[140.527,41.221],[140.431,41.198],[140.347,41.258],[140.336,41.192],[140.312,41.138],[140.277,41.139],[140.267,41.119],[140.319,41.093],[140.366,41.039],[140.414,41.025],[140.392,40.989],[140.408,40.938],[140.422,40.894],[140.381,40.957],[140.365,41.012],[140.322,41.036],[140.279,40.853],[140.226,40.781],[140.182,40.774],[140.097,40.746],[140.026,40.75],[139.994,40.732],[139.959,40.679],[139.922,40.645],[139.861,40.605],[139.87,40.583],[139.916,40.586],[139.946,40.513],[139.936,40.428],[139.981,40.386],[140.025,40.32],[140.007,40.225],[140.056,40.197],[140.178,40.223],[140.241,40.206],[140.177,40.22],[140.057,40.193],[140.025,40.217],[139.948,40.078],[139.798,39.957],[139.699,40.003],[139.709,39.956],[139.705,39.928],[139.735,39.902],[139.755,39.862],[139.779,39.864],[139.845,39.863],[139.848,39.877],[139.897,39.902],[139.949,39.941],[139.929,40.024],[139.971,40.075],[139.983,40.093],[140.063,40.063],[140.049,39.937],[140.047,39.887],[140.017,39.91],[139.973,39.883],[140.038,39.796],[140.043,39.762],[140.074,39.733],[140.055,39.751],[140.049,39.741],[140.114,39.668],[140.189,39.594],[140.128,39.643],[140.064,39.661],[140.043,39.496],[140.031,39.388],[140.011,39.375],[139.946,39.289],[139.911,39.24],[139.9,39.201],[139.901,39.168],[139.873,39.106],[139.878,39.066],[139.837,38.979],[139.821,38.948],[139.833,38.913],[139.864,38.879],[139.943,38.867],[140.013,38.795],[139.976,38.818],[139.917,38.88],[139.816,38.918],[139.741,38.773],[139.689,38.723],[139.64,38.688],[139.606,38.659],[139.578,38.614],[139.559,38.582],[139.54,38.528],[139.511,38.485],[139.479,38.429],[139.456,38.394],[139.448,38.315],[139.45,38.236],[139.409,38.15],[139.408,38.15],[139.278,38.023],[139.229,38.0],[139.238,37.972],[139.217,37.99],[139.137,37.955],[139.162,37.831],[139.203,37.774],[139.279,37.738],[139.365,37.713],[139.355,37.717],[139.273,37.737],[139.208,37.772],[139.151,37.813],[139.132,37.948],[139.074,37.948],[139.064,37.927],[139.025,37.871],[139.034,37.839],[139.01,37.894],[138.864,37.835],[138.799,37.749],[138.777,37.667],[138.83,37.568],[138.852,37.49],[138.814,37.404],[138.813,37.292],[138.808,37.376],[138.829,37.442],[138.818,37.563],[138.811,37.648],[138.754,37.617],[138.655,37.521],[138.588,37.423],[138.525,37.362],[138.471,37.338],[138.342,37.244],[138.254,37.185],[138.266,37.119],[138.245,37.181],[138.145,37.164],[138.053,37.132],[137.963,37.09],[137.839,37.04],[137.733,37.005],[137.596,36.975],[137.461,36.939],[137.413,36.893],[137.393,36.807],[137.302,36.755],[137.229,36.764],[137.206,36.716],[137.194,36.761],[137.125,36.762],[137.104,36.773],[137.091,36.782],[137.062,36.791],[137.051,36.809],[136.984,36.868],[137.028,36.935],[137.054,36.994],[137.049,37.059],[137.05,37.101],[137.016,37.094],[136.999,37.058],[136.961,37.052],[136.919,37.09],[136.883,37.068],[136.872,37.088],[136.889,37.111],[136.874,37.145],[136.915,37.2],[136.914,37.229],[136.939,37.226],[136.951,37.22],[136.982,37.204],[137.032,37.202],[137.092,37.259],[137.151,37.296],[137.192,37.299],[137.235,37.297],[137.251,37.317],[137.261,37.345],[137.239,37.374],[137.283,37.441],[137.353,37.444],[137.347,37.506],[137.295,37.527],[137.236,37.521],[137.182,37.5],[137.106,37.48],[137.073,37.455],[137.023,37.432],[136.901,37.406],[136.868,37.405],[136.802,37.377],[136.746,37.343],[136.727,37.306],[136.713,37.248],[136.688,37.212],[136.67,37.146],[136.727,37.129],[136.723,37.09],[136.734,37.048],[136.765,37.003],[136.756,36.952],[136.757,36.921],[136.718,36.778],[136.618,36.614],[136.585,36.598],[136.477,36.487],[136.321,36.354],[136.245,36.296],[136.15,36.253],[136.135,36.221],[136.149,36.172],[136.172,36.117],[136.16,36.16],[136.14,36.216],[136.127,36.195],[136.072,36.134],[136.021,36.07],[135.968,36.002],[135.985,35.952],[135.997,35.886],[136.077,35.812],[136.092,35.715],[136.075,35.67],[136.026,35.679],[136.044,35.706],[136.03,35.744],[135.993,35.748],[135.955,35.72],[135.972,35.708],[135.967,35.655],[135.954,35.634],[135.91,35.617],[135.86,35.611],[135.836,35.636],[135.827,35.635],[135.837,35.606],[135.856,35.579],[135.81,35.573],[135.826,35.552],[135.816,35.533],[135.79,35.54],[135.75,35.555],[135.692,35.55],[135.716,35.521],[135.763,35.538],[135.737,35.503],[135.712,35.483],[135.661,35.492],[135.631,35.481],[135.625,35.489],[135.64,35.515],[135.672,35.525],[135.632,35.537],[135.574,35.495],[135.514,35.498],[135.515,35.527],[135.5,35.549],[135.494,35.528],[135.474,35.531],[135.48,35.551],[135.458,35.57],[135.454,35.598],[135.403,35.561],[135.347,35.543],[135.347,35.509],[135.38,35.503],[135.401,35.494],[135.372,35.477],[135.362,35.488],[135.346,35.479],[135.318,35.453],[135.32,35.478],[135.332,35.509],[135.289,35.503],[135.26,35.444],[135.243,35.425],[135.285,35.508],[135.237,35.547],[135.275,35.56],[135.257,35.593],[135.23,35.576],[135.2,35.537],[135.225,35.603],[135.277,35.67],[135.304,35.664],[135.286,35.706],[135.269,35.741],[135.238,35.766],[135.181,35.76],[135.114,35.743],[135.075,35.718],[135.032,35.695],[134.991,35.691],[134.942,35.651],[134.883,35.658],[134.849,35.653],[134.824,35.629],[134.83,35.655],[134.78,35.662],[134.759,35.661],[134.728,35.661],[134.695,35.664],[134.66,35.658],[134.645,35.654],[134.61,35.65],[134.573,35.657],[134.518,35.662],[134.469,35.641],[134.432,35.63],[134.406,35.616],[134.375,35.611],[134.34,35.604],[134.291,35.585],[134.266,35.557],[134.213,35.508],[134.167,35.533],[134.066,35.519],[133.989,35.523],[133.952,35.517],[133.887,35.508],[133.852,35.504],[133.66,35.51],[133.577,35.53],[133.495,35.515],[133.443,35.488],[133.372,35.455],[133.255,35.508],[133.255,35.541],[133.204,35.534],[133.222,35.492],[133.243,35.475],[133.284,35.446],[133.318,35.418],[133.309,35.422],[133.261,35.431],[133.24,35.444],[133.186,35.432],[133.145,35.45],[133.092,35.461],[132.983,35.431],[132.894,35.409],[132.884,35.425],[132.789,35.364],[132.801,35.405],[132.866,35.451],[132.956,35.477],[133.054,35.468],[133.101,35.454],[133.134,35.497],[133.155,35.537],[133.185,35.528],[133.259,35.553],[133.315,35.569],[133.281,35.571],[133.251,35.575],[133.23,35.579],[133.196,35.576],[133.184,35.563],[133.16,35.571],[133.139,35.564],[133.113,35.588],[133.085,35.601],[133.09,35.581],[133.053,35.56],[133.03,35.541],[132.982,35.546],[132.967,35.535],[132.909,35.512],[132.836,35.504],[132.779,35.479],[132.756,35.453],[132.696,35.45],[132.65,35.441],[132.623,35.418],[132.686,35.359],[132.585,35.272],[132.527,35.242],[132.467,35.213],[132.414,35.179],[132.387,35.147],[132.357,35.114],[132.342,35.094],[132.285,35.048],[132.231,35.023],[132.251,35.009],[132.195,35.001],[132.124,34.953],[132.087,34.93],[132.077,34.91],[132.07,34.892],[132.045,34.876],[132.021,34.871],[131.991,34.83],[131.951,34.805],[131.926,34.78],[131.891,34.76],[131.872,34.733],[131.826,34.694],[131.819,34.693],[131.692,34.677],[131.668,34.671],[131.648,34.644],[131.633,34.665],[131.599,34.657],[131.591,34.631],[131.603,34.63],[131.585,34.622],[131.551,34.594],[131.521,34.556],[131.482,34.532],[131.456,34.508],[131.441,34.484],[131.419,34.453],[131.396,34.453],[131.417,34.44],[131.401,34.428],[131.394,34.399],[131.34,34.416],[131.307,34.387],[131.27,34.39],[131.223,34.377],[131.181,34.378],[131.132,34.411],[131.074,34.425],[131.008,34.415],[130.959,34.414],[130.953,34.405],[131.021,34.391],[131.003,34.373],[130.966,34.358],[130.932,34.347],[130.902,34.363],[130.898,34.325],[130.873,34.295],[130.912,34.246],[130.933,34.191],[130.897,34.154],[130.88,34.14],[130.861,34.105],[130.883,34.074],[130.904,34.027],[130.916,33.982],[130.914,33.944],[130.879,33.953],[130.9,33.922],[130.924,33.936],[130.957,33.965],[131.006,34.002],[131.03,34.039],[131.048,34.05],[131.128,34.0],[131.149,34.022],[131.167,33.994],[131.169,33.973],[131.177,33.932],[131.215,33.961],[131.219,33.96],[131.234,33.943],[131.248,33.942],[131.259,33.926],[131.311,33.949],[131.35,33.971],[131.373,34.001],[131.377,34.052],[131.404,34.102],[131.402,34.044],[131.416,34.02],[131.399,33.991],[131.431,34.003],[131.446,33.995],[131.46,34.003],[131.479,34.041],[131.528,34.05],[131.51,34.011],[131.543,34.007],[131.591,34.04],[131.643,34.048],[131.679,34.046],[131.71,34.057],[131.753,34.07],[131.759,34.053],[131.788,34.063],[131.798,34.047],[131.823,34.027],[131.783,33.994],[131.808,33.968],[131.832,34.005],[131.854,34.005],[131.902,33.972],[131.923,33.954],[131.964,33.943],[131.972,33.926],[132.028,33.903],[132.066,33.933],[132.056,33.919],[132.086,33.89],[132.117,33.838],[132.146,33.869],[132.128,33.898],[132.118,33.954],[132.12,33.954],[132.185,33.962],[132.221,34.048],[132.202,34.113],[132.21,34.152],[132.247,34.168],[132.232,34.185],[132.222,34.209],[132.25,34.265],[132.275,34.28],[132.323,34.336],[132.353,34.348],[132.369,34.35],[132.465,34.428],[132.461,34.374],[132.453,34.353],[132.479,34.363],[132.501,34.355],[132.528,34.353],[132.504,34.336],[132.518,34.28],[132.53,34.249],[132.541,34.242],[132.549,34.228],[132.538,34.196],[132.503,34.146],[132.474,34.125],[132.448,34.094],[132.484,34.089],[132.51,34.102],[132.539,34.096],[132.553,34.068],[132.568,34.102],[132.583,34.123],[132.539,34.118],[132.548,34.151],[132.543,34.17],[132.534,34.189],[132.593,34.212],[132.629,34.247],[132.618,34.21],[132.651,34.204],[132.679,34.211],[132.711,34.239],[132.761,34.248],[132.759,34.264],[132.762,34.282],[132.795,34.296],[132.831,34.314],[132.876,34.307],[132.892,34.325],[132.964,34.337],[133.04,34.332],[133.082,34.354],[133.032,34.396],[133.082,34.398],[133.148,34.392],[133.241,34.441],[133.26,34.436],[133.266,34.404],[133.268,34.392],[133.302,34.386],[133.332,34.379],[133.379,34.382],[133.404,34.437],[133.341,34.493],[133.44,34.436],[133.409,34.48],[133.444,34.482],[133.478,34.453],[133.528,34.454],[133.502,34.498],[133.515,34.493],[133.577,34.466],[133.594,34.489],[133.648,34.504],[133.666,34.528],[133.691,34.523],[133.718,34.59],[133.714,34.58],[133.737,34.49],[133.761,34.499],[133.768,34.462],[133.807,34.435],[133.809,34.46],[133.859,34.467],[133.928,34.453],[133.943,34.456],[133.95,34.487],[133.977,34.533],[133.996,34.533],[134.028,34.554],[134.034,34.597],[133.962,34.584],[133.924,34.546],[133.907,34.57],[133.908,34.61],[133.945,34.589],[133.945,34.629],[133.978,34.603],[133.987,34.611],[134.003,34.616],[134.029,34.643],[134.104,34.745],[134.141,34.796],[134.135,34.792],[134.086,34.698],[134.04,34.622],[134.064,34.605],[134.078,34.586],[134.109,34.589],[134.148,34.612],[134.185,34.632],[134.198,34.659],[134.218,34.676],[134.241,34.694],[134.22,34.709],[134.202,34.715],[134.194,34.734],[134.268,34.719],[134.298,34.736],[134.361,34.74],[134.386,34.726],[134.409,34.726],[134.452,34.766],[134.463,34.769],[134.468,34.791],[134.502,34.773],[134.558,34.765],[134.605,34.766],[134.629,34.775],[134.647,34.789],[134.66,34.774],[134.69,34.76],[134.756,34.765],[134.791,34.744],[134.809,34.72],[134.852,34.709],[134.867,34.697],[134.962,34.65],[135.032,34.631],[135.059,34.627],[135.122,34.642],[135.154,34.65],[135.185,34.654],[135.189,34.671],[135.193,34.679],[135.208,34.684],[135.217,34.694],[135.271,34.707],[135.324,34.725],[135.361,34.706],[135.379,34.737],[135.379,34.691],[135.376,34.676],[135.448,34.737],[135.409,34.694],[135.507,34.721],[135.589,34.772],[135.67,34.864],[135.607,34.782],[135.549,34.733],[135.41,34.671],[135.416,34.652],[135.439,34.661],[135.455,34.648],[135.461,34.64],[135.474,34.631],[135.441,34.626],[135.4,34.62],[135.531,34.598],[135.62,34.511],[135.625,34.577],[135.456,34.604],[135.463,34.588],[135.455,34.576],[135.446,34.557],[135.401,34.514],[135.387,34.514],[135.386,34.499],[135.366,34.481],[135.361,34.462],[135.338,34.443],[135.323,34.428],[135.279,34.395],[135.21,34.344],[135.132,34.325],[135.081,34.309],[135.065,34.269],[135.124,34.24],[135.149,34.228],[135.224,34.248],[135.128,34.217],[135.14,34.214],[135.133,34.212],[135.151,34.183],[135.174,34.178],[135.184,34.148],[135.186,34.143],[135.132,34.121],[135.123,34.117],[135.096,34.085],[135.079,34.074],[135.145,34.056],[135.174,34.032],[135.138,34.017],[135.113,33.995],[135.088,33.98],[135.072,33.958],[135.109,33.959],[135.085,33.935],[135.074,33.927],[135.079,33.914],[135.065,33.892],[135.126,33.891],[135.159,33.867],[135.194,33.817],[135.234,33.784],[135.308,33.769],[135.337,33.746],[135.354,33.725],[135.383,33.717],[135.396,33.703],[135.385,33.701],[135.378,33.683],[135.365,33.679],[135.356,33.688],[135.341,33.685],[135.362,33.653],[135.396,33.641],[135.393,33.613],[135.402,33.587],[135.422,33.571],[135.447,33.549],[135.487,33.551],[135.514,33.528],[135.574,33.516],[135.596,33.507],[135.637,33.505],[135.701,33.493],[135.712,33.481],[135.752,33.48],[135.775,33.466],[135.753,33.438],[135.793,33.444],[135.781,33.463],[135.795,33.492],[135.829,33.514],[135.877,33.53],[135.925,33.56],[135.916,33.571],[135.945,33.577],[135.937,33.596],[135.936,33.614],[135.948,33.632],[135.975,33.657],[135.974,33.67],[135.987,33.688],[135.974,33.735],[136.024,33.75],[136.108,33.891],[136.133,33.887],[136.149,33.911],[136.169,33.926],[136.194,33.917],[136.188,33.939],[136.218,33.947],[136.217,33.965],[136.192,33.975],[136.24,33.986],[136.253,33.964],[136.261,33.989],[136.266,34.007],[136.275,34.017],[136.245,34.063],[136.202,34.076],[136.233,34.103],[136.271,34.126],[136.249,34.094],[136.272,34.099],[136.281,34.095],[136.305,34.104],[136.29,34.115],[136.282,34.144],[136.288,34.156],[136.312,34.179],[136.339,34.196],[136.349,34.194],[136.379,34.202],[136.397,34.206],[136.432,34.219],[136.448,34.246],[136.469,34.256],[136.465,34.231],[136.497,34.225],[136.491,34.239],[136.503,34.254],[136.51,34.263],[136.522,34.267],[136.535,34.272],[136.543,34.25],[136.551,34.277],[136.571,34.289],[136.583,34.267],[136.619,34.273],[136.653,34.286],[136.671,34.31],[136.666,34.312],[136.642,34.308],[136.659,34.326],[136.673,34.339],[136.682,34.323],[136.707,34.336],[136.72,34.333],[136.701,34.32],[136.689,34.292],[136.703,34.291],[136.75,34.293],[136.76,34.301],[136.775,34.306],[136.794,34.289],[136.806,34.304],[136.805,34.308],[136.826,34.306],[136.832,34.304],[136.857,34.288],[136.834,34.291],[136.839,34.271],[136.857,34.277],[136.852,34.274],[136.813,34.273],[136.791,34.277],[136.758,34.273],[136.789,34.256],[136.848,34.256],[136.893,34.276],[136.886,34.3],[136.89,34.349],[136.881,34.359],[136.853,34.359],[136.828,34.364],[136.871,34.372],[136.896,34.389],[136.918,34.403],[136.924,34.44],[136.907,34.452],[136.886,34.445],[136.88,34.439],[136.868,34.454],[136.869,34.475],[136.843,34.492],[136.827,34.494],[136.788,34.509],[136.758,34.496],[136.739,34.503],[136.699,34.514],[136.711,34.542],[136.67,34.556],[136.591,34.602],[136.556,34.596],[136.519,34.612],[136.548,34.633],[136.535,34.659],[136.521,34.694],[136.516,34.742],[136.569,34.803],[136.646,34.903],[136.663,34.945],[136.639,34.961],[136.666,35.003],[136.698,35.015],[136.67,35.127],[136.649,35.165],[136.692,35.077],[136.679,35.101],[136.74,35.032],[136.722,35.092],[136.786,35.019],[136.817,35.051],[136.822,35.077],[136.783,35.115],[136.827,35.082],[136.847,35.056],[136.864,35.079],[136.877,35.095],[136.891,35.093],[136.885,35.075],[136.932,35.071],[136.896,35.042],[136.867,35.005],[136.838,34.98],[136.824,34.898],[136.822,34.888]],[[138.246,37.803],[138.298,37.821],[138.377,37.841],[138.453,37.891],[138.503,37.942],[138.546,38.007],[138.571,38.073],[138.506,38.072],[138.437,38.083],[138.45,38.145],[138.493,38.204],[138.516,38.316],[138.48,38.328],[138.459,38.311],[138.418,38.255],[138.367,38.216],[138.303,38.159],[138.281,38.132],[138.247,38.094],[138.236,38.064],[138.234,38.009],[138.233,37.974],[138.26,37.98],[138.349,37.993],[138.305,37.938],[138.283,37.868],[138.218,37.837],[138.217,37.81],[138.246,37.803]],[[136.023,30.1],[135.939,30.096],[135.856,30.093],[135.784,30.092],[135.745,30.092],[135.683,30.093],[135.609,30.095],[135.536,30.098],[135.482,30.09],[135.4,30.066],[135.317,30.021],[135.249,29.98],[135.179,29.939],[135.108,29.9],[135.037,29.862],[134.966,29.827],[134.923,29.805],[134.856,29.774],[134.782,29.741],[134.763,29.711],[134.737,29.637],[134.707,29.558],[134.675,29.479],[134.641,29.382],[134.606,29.294],[134.579,29.228],[134.556,29.178],[134.528,29.117],[134.495,29.051],[134.46,28.984],[134.424,28.919],[134.386,28.854],[134.347,28.79],[134.306,28.726],[134.27,28.674],[134.232,28.619],[134.187,28.558],[134.141,28.497],[134.093,28.438],[134.044,28.379],[133.993,28.322],[134.022,28.276],[134.078,28.222],[134.132,28.167],[134.187,28.11],[134.221,28.073],[134.266,28.022],[134.315,27.964],[134.363,27.904],[134.41,27.844],[134.454,27.783],[134.498,27.721],[134.539,27.658],[134.57,27.61],[134.598,27.564],[134.635,27.499],[134.671,27.434],[134.706,27.368],[134.739,27.301],[134.77,27.234],[134.799,27.166],[134.827,27.097],[134.849,27.039],[134.871,26.977],[134.886,26.93],[134.894,26.905],[134.909,26.858],[134.924,26.804],[134.939,26.749],[134.952,26.695],[134.965,26.64],[134.976,26.586],[134.986,26.532],[134.994,26.485],[135.004,26.422],[135.013,26.35],[135.021,26.277],[135.027,26.204],[135.031,26.131],[135.033,26.059],[135.034,25.986],[135.033,25.922],[135.031,25.858],[135.026,25.785],[135.02,25.712],[135.013,25.64],[135.004,25.571],[134.995,25.511],[134.982,25.439],[134.968,25.368],[134.955,25.308],[134.944,25.264],[134.938,25.237],[134.923,25.181],[134.905,25.119],[134.886,25.057],[134.865,24.995],[134.844,24.934],[134.831,24.876],[134.839,24.804],[134.845,24.731],[134.849,24.658],[134.852,24.585],[134.852,24.512],[134.852,24.444],[134.85,24.381],[134.846,24.308],[134.84,24.235],[134.832,24.163],[134.823,24.09],[134.812,24.018],[134.8,23.946],[134.789,23.89],[134.777,23.834],[134.763,23.774],[134.746,23.709],[134.728,23.644],[134.713,23.596],[134.704,23.565],[134.691,23.518],[134.764,23.545],[134.82,23.565],[134.853,23.576],[134.928,23.6],[135.001,23.623],[135.077,23.644],[135.175,23.668],[135.216,23.678],[135.255,23.686],[135.338,23.704],[135.413,23.718],[135.45,23.724],[135.489,23.73],[135.555,23.74],[135.633,23.751],[135.712,23.759],[135.791,23.766],[135.87,23.772],[135.949,23.776],[136.029,23.778],[136.094,23.779],[136.127,23.779],[136.173,23.778],[136.249,23.776],[136.325,23.772],[136.401,23.767],[136.477,23.761],[136.553,23.752],[136.628,23.743],[136.704,23.732],[136.735,23.727],[136.788,23.717],[136.866,23.702],[136.943,23.686],[137.02,23.668],[137.1,23.647],[137.183,23.624],[137.22,23.613],[137.258,23.601],[137.295,23.589],[137.344,23.573],[137.397,23.554],[137.471,23.527],[137.55,23.495],[137.63,23.462],[137.722,23.42],[137.792,23.386],[137.861,23.351],[137.909,23.325],[137.948,23.304],[137.941,23.363],[137.92,23.433],[137.899,23.502],[137.874,23.56],[137.855,23.605],[137.834,23.656],[137.809,23.725],[137.784,23.795],[137.762,23.865],[137.741,23.935],[137.721,24.006],[137.704,24.077],[137.689,24.144],[137.678,24.197],[137.67,24.237],[137.663,24.28],[137.653,24.339],[137.645,24.398],[137.638,24.458],[137.632,24.517],[137.627,24.577],[137.624,24.636],[137.621,24.692],[137.62,24.734],[137.619,24.78],[137.618,24.834],[137.619,24.901],[137.621,24.967],[137.618,25.033],[137.607,25.116],[137.599,25.189],[137.593,25.261],[137.589,25.334],[137.586,25.398],[137.585,25.466],[137.586,25.538],[137.588,25.611],[137.591,25.674],[137.553,25.739],[137.517,25.804],[137.482,25.87],[137.448,25.936],[137.416,26.003],[137.39,26.062],[137.368,26.113],[137.341,26.182],[137.315,26.251],[137.29,26.32],[137.268,26.391],[137.247,26.461],[137.227,26.532],[137.211,26.6],[137.197,26.66],[137.186,26.712],[137.173,26.784],[137.161,26.856],[137.152,26.929],[137.144,27.001],[137.137,27.074],[137.133,27.147],[137.13,27.212],[137.129,27.262],[137.129,27.335],[137.131,27.408],[137.135,27.48],[137.14,27.553],[137.147,27.626],[137.156,27.698],[137.166,27.766],[137.177,27.828],[137.189,27.893],[137.123,28.015],[137.022,28.161],[136.886,28.389],[136.785,28.591],[136.708,28.774],[136.617,29.051],[136.576,29.213],[136.539,29.412],[136.512,29.669],[136.507,29.843],[136.499,29.891],[136.49,29.935],[136.477,29.998],[136.466,30.061],[136.456,30.125],[136.424,30.14],[136.35,30.13],[136.253,30.119],[136.173,30.111],[136.09,30.104],[136.023,30.1]],[[134.96,34.576],[134.883,34.526],[134.825,34.467],[134.775,34.414],[134.718,34.328],[134.682,34.321],[134.661,34.276],[134.672,34.246],[134.721,34.25],[134.732,34.203],[134.8,34.199],[134.955,34.277],[134.922,34.31],[134.898,34.368],[134.899,34.422],[134.908,34.434],[134.938,34.46],[134.993,34.521],[135.025,34.581],[134.969,34.589],[134.96,34.576]],[[134.243,33.464],[134.291,33.535],[134.301,33.547],[134.314,33.561],[134.334,33.579],[134.363,33.595],[134.365,33.628],[134.397,33.65],[134.422,33.666],[134.452,33.671],[134.503,33.698],[134.542,33.728],[134.572,33.744],[134.585,33.772],[134.621,33.786],[134.655,33.793],[134.737,33.829],[134.712,33.835],[134.717,33.849],[134.674,33.85],[134.64,33.844],[134.633,33.855],[134.648,33.872],[134.674,33.878],[134.704,33.924],[134.685,33.938],[134.639,33.941],[134.69,33.954],[134.626,34.009],[134.619,33.992],[134.599,34.004],[134.594,34.024],[134.569,34.043],[134.555,34.047],[134.596,34.065],[134.516,34.102],[134.43,34.102],[134.498,34.11],[134.604,34.103],[134.586,34.129],[134.626,34.137],[134.603,34.148],[134.59,34.224],[134.546,34.224],[134.44,34.208],[134.407,34.238],[134.361,34.25],[134.285,34.277],[134.246,34.306],[134.242,34.343],[134.209,34.358],[134.181,34.326],[134.16,34.369],[134.123,34.389],[134.093,34.385],[134.079,34.362],[134.056,34.354],[134.021,34.349],[133.989,34.362],[133.943,34.375],[133.908,34.381],[133.899,34.352],[133.871,34.34],[133.848,34.326],[133.859,34.353],[133.825,34.353],[133.808,34.304],[133.789,34.295],[133.772,34.305],[133.752,34.279],[133.745,34.273],[133.737,34.265],[133.688,34.219],[133.67,34.239],[133.617,34.239],[133.574,34.265],[133.576,34.244],[133.617,34.221],[133.647,34.178],[133.636,34.124],[133.636,34.078],[133.592,34.035],[133.567,34.017],[133.542,34.004],[133.505,33.973],[133.403,33.988],[133.332,33.982],[133.273,33.984],[133.249,33.975],[133.244,33.954],[133.175,33.93],[133.157,33.915],[133.131,33.923],[133.126,33.942],[133.108,33.947],[133.07,33.972],[133.031,34.053],[132.996,34.081],[132.97,34.106],[132.939,34.137],[132.895,34.112],[132.93,34.088],[132.919,34.067],[132.853,34.044],[132.767,33.999],[132.768,33.946],[132.71,33.903],[132.708,33.859],[132.693,33.816],[132.693,33.796],[132.7,33.765],[132.663,33.709],[132.539,33.641],[132.479,33.616],[132.463,33.6],[132.422,33.547],[132.379,33.526],[132.318,33.493],[132.265,33.457],[132.247,33.465],[132.197,33.455],[132.175,33.43],[132.167,33.416],[132.135,33.403],[132.108,33.409],[132.044,33.367],[132.026,33.344],[132.075,33.376],[132.116,33.374],[132.125,33.365],[132.168,33.398],[132.231,33.426],[132.29,33.465],[132.323,33.464],[132.354,33.487],[132.402,33.471],[132.416,33.455],[132.393,33.441],[132.379,33.416],[132.379,33.389],[132.384,33.362],[132.419,33.379],[132.392,33.347],[132.379,33.321],[132.434,33.319],[132.484,33.313],[132.496,33.317],[132.516,33.316],[132.489,33.295],[132.468,33.254],[132.486,33.273],[132.532,33.263],[132.533,33.244],[132.554,33.222],[132.547,33.222],[132.539,33.216],[132.506,33.206],[132.493,33.195],[132.515,33.171],[132.497,33.178],[132.485,33.181],[132.46,33.19],[132.451,33.203],[132.408,33.205],[132.456,33.18],[132.431,33.154],[132.46,33.137],[132.502,33.129],[132.488,33.125],[132.454,33.122],[132.47,33.09],[132.473,33.07],[132.488,33.064],[132.446,33.065],[132.414,33.063],[132.397,33.055],[132.378,33.024],[132.408,33.026],[132.429,33.053],[132.452,33.035],[132.466,33.05],[132.491,33.01],[132.522,32.976],[132.554,32.958],[132.516,32.966],[132.498,32.983],[132.481,32.962],[132.484,32.944],[132.461,32.939],[132.489,32.902],[132.519,32.918],[132.527,32.933],[132.537,32.948],[132.559,32.936],[132.581,32.942],[132.599,32.921],[132.659,32.922],[132.693,32.927],[132.724,32.931],[132.714,32.893],[132.716,32.88],[132.691,32.878],[132.662,32.852],[132.652,32.828],[132.649,32.802],[132.638,32.775],[132.663,32.78],[132.692,32.793],[132.729,32.778],[132.78,32.753],[132.815,32.762],[132.86,32.787],[132.869,32.77],[132.891,32.789],[132.936,32.786],[132.957,32.776],[132.97,32.75],[132.995,32.73],[133.017,32.765],[132.961,32.805],[132.955,32.845],[132.956,32.86],[132.997,32.867],[133.01,32.911],[132.969,32.966],[132.943,32.974],[132.983,32.951],[132.999,32.971],[133.009,33.011],[133.085,33.026],[133.099,33.051],[133.121,33.086],[133.168,33.142],[133.212,33.148],[133.22,33.194],[133.242,33.218],[133.25,33.25],[133.251,33.279],[133.244,33.3],[133.238,33.322],[133.257,33.338],[133.262,33.367],[133.292,33.387],[133.304,33.391],[133.304,33.375],[133.321,33.37],[133.324,33.361],[133.343,33.392],[133.379,33.394],[133.405,33.397],[133.427,33.408],[133.449,33.434],[133.42,33.434],[133.402,33.422],[133.38,33.414],[133.367,33.407],[133.374,33.43],[133.401,33.442],[133.423,33.44],[133.465,33.452],[133.483,33.462],[133.559,33.509],[133.554,33.538],[133.48,33.57],[133.544,33.557],[133.564,33.574],[133.57,33.569],[133.571,33.514],[133.589,33.509],[133.695,33.535],[133.76,33.52],[133.934,33.488],[133.991,33.428],[134.031,33.413],[134.093,33.333],[134.146,33.288],[134.186,33.27],[134.215,33.39],[134.243,33.464]],[[132.207,33.857],[132.279,33.87],[132.289,33.893],[132.337,33.878],[132.362,33.861],[132.373,33.905],[132.398,33.918],[132.427,33.926],[132.472,33.951],[132.405,33.931],[132.373,33.927],[132.331,33.902],[132.302,33.92],[132.267,33.948],[132.214,33.965],[132.183,33.949],[132.174,33.927],[132.204,33.879],[132.207,33.857]],[[131.854,32.703],[131.865,32.723],[131.884,32.748],[131.879,32.764],[131.885,32.779],[131.887,32.796],[131.919,32.785],[131.943,32.789],[131.979,32.809],[131.981,32.843],[131.966,32.833],[131.956,32.843],[131.978,32.867],[132.017,32.89],[131.985,32.912],[132.011,32.907],[132.023,32.931],[132.056,32.94],[132.067,32.945],[132.033,32.939],[132.003,32.959],[131.975,32.945],[131.946,32.959],[131.908,32.943],[131.907,32.944],[131.923,32.958],[131.896,32.995],[131.92,33.029],[131.933,33.051],[131.991,33.053],[132.002,33.096],[131.968,33.064],[131.938,33.092],[131.929,33.068],[131.886,33.083],[131.854,33.087],[131.895,33.107],[131.896,33.127],[131.86,33.127],[131.813,33.121],[131.828,33.15],[131.836,33.182],[131.866,33.212],[131.886,33.243],[131.868,33.255],[131.836,33.247],[131.744,33.253],[131.712,33.271],[131.698,33.216],[131.691,33.266],[131.687,33.266],[131.669,33.26],[131.623,33.223],[131.601,33.253],[131.553,33.257],[131.504,33.299],[131.502,33.361],[131.575,33.348],[131.599,33.37],[131.636,33.399],[131.623,33.414],[131.655,33.422],[131.703,33.407],[131.739,33.494],[131.74,33.546],[131.715,33.605],[131.669,33.657],[131.646,33.672],[131.607,33.687],[131.568,33.675],[131.544,33.676],[131.507,33.671],[131.485,33.648],[131.425,33.593],[131.417,33.563],[131.412,33.573],[131.37,33.557],[131.358,33.577],[131.304,33.58],[131.244,33.61],[131.19,33.609],[131.17,33.618],[131.123,33.624],[131.099,33.619],[131.061,33.656],[131.022,33.725],[131.01,33.746],[130.983,33.74],[130.992,33.773],[130.996,33.8],[130.967,33.836],[130.987,33.879],[130.993,33.895],[131.015,33.919],[131.008,33.934],[131.011,33.965],[130.963,33.962],[130.941,33.926],[130.891,33.893],[130.877,33.906],[130.867,33.921],[130.82,33.907],[130.782,33.878],[130.761,33.877],[130.782,33.888],[130.808,33.913],[130.778,33.934],[130.761,33.926],[130.709,33.938],[130.679,33.921],[130.679,33.888],[130.66,33.899],[130.555,33.891],[130.503,33.846],[130.455,33.811],[130.461,33.787],[130.424,33.718],[130.334,33.66],[130.298,33.66],[130.366,33.661],[130.432,33.684],[130.432,33.659],[130.43,33.638],[130.403,33.623],[130.402,33.605],[130.386,33.597],[130.362,33.599],[130.312,33.597],[130.266,33.589],[130.236,33.614],[130.21,33.667],[130.179,33.633],[130.106,33.592],[130.101,33.563],[130.116,33.547],[130.143,33.534],[130.1,33.516],[130.05,33.495],[130.039,33.454],[129.96,33.468],[129.958,33.471],[129.937,33.478],[129.958,33.521],[129.927,33.546],[129.894,33.539],[129.878,33.524],[129.852,33.556],[129.852,33.523],[129.852,33.51],[129.834,33.5],[129.849,33.468],[129.837,33.455],[129.801,33.476],[129.786,33.447],[129.826,33.422],[129.858,33.405],[129.866,33.404],[129.866,33.382],[129.844,33.354],[129.837,33.335],[129.84,33.318],[129.857,33.281],[129.831,33.296],[129.803,33.333],[129.782,33.373],[129.736,33.359],[129.694,33.358],[129.676,33.386],[129.667,33.384],[129.63,33.368],[129.596,33.371],[129.574,33.356],[129.579,33.306],[129.61,33.31],[129.586,33.285],[129.576,33.279],[129.565,33.257],[129.555,33.242],[129.563,33.228],[129.56,33.226],[129.568,33.217],[129.596,33.209],[129.595,33.205],[129.615,33.209],[129.639,33.199],[129.645,33.207],[129.652,33.182],[129.653,33.172],[129.674,33.162],[129.689,33.135],[129.662,33.127],[129.669,33.104],[129.706,33.123],[129.705,33.157],[129.711,33.162],[129.728,33.156],[129.725,33.134],[129.741,33.131],[129.767,33.143],[129.758,33.117],[129.745,33.099],[129.748,33.078],[129.756,33.057],[129.772,33.066],[129.762,33.082],[129.804,33.076],[129.82,33.06],[129.82,33.053],[129.834,33.046],[129.855,33.061],[129.901,33.05],[129.944,33.011],[129.929,32.961],[129.952,32.899],[129.965,32.873],[130.005,32.844],[129.966,32.847],[129.932,32.864],[129.894,32.868],[129.88,32.865],[129.858,32.854],[129.842,32.843],[129.797,32.871],[129.791,32.885],[129.803,32.883],[129.799,32.91],[129.787,32.917],[129.802,32.938],[129.817,32.933],[129.81,32.964],[129.816,32.988],[129.785,33.007],[129.758,33.002],[129.746,32.999],[129.733,33.001],[129.762,33.049],[129.735,33.047],[129.737,33.064],[129.706,33.087],[129.674,33.088],[129.671,33.073],[129.666,33.065],[129.647,33.038],[129.651,32.992],[129.626,32.978],[129.63,32.946],[129.636,32.927],[129.662,32.918],[129.677,32.867],[129.727,32.818],[129.766,32.816],[129.783,32.788],[129.808,32.753],[129.831,32.734],[129.84,32.725],[129.862,32.73],[129.833,32.696],[129.827,32.708],[129.793,32.693],[129.819,32.685],[129.795,32.634],[129.781,32.604],[129.755,32.589],[129.754,32.58],[129.782,32.583],[129.836,32.634],[129.869,32.646],[129.916,32.698],[129.928,32.715],[129.957,32.743],[129.992,32.754],[130.049,32.762],[130.09,32.794],[130.186,32.766],[130.201,32.724],[130.159,32.69],[130.13,32.675],[130.154,32.624],[130.168,32.591],[130.212,32.606],[130.259,32.64],[130.313,32.656],[130.358,32.695],[130.376,32.758],[130.377,32.79],[130.343,32.854],[130.294,32.88],[130.21,32.857],[130.157,32.846],[130.126,32.884],[130.156,32.906],[130.201,32.939],[130.225,32.957],[130.192,32.99],[130.17,33.047],[130.146,33.086],[130.119,33.106],[130.13,33.124],[130.233,33.183],[130.226,33.197],[130.277,33.169],[130.319,33.164],[130.357,33.212],[130.415,33.255],[130.486,33.313],[130.581,33.328],[130.71,33.364],[130.815,33.36],[130.782,33.348],[130.631,33.353],[130.495,33.319],[130.43,33.27],[130.366,33.216],[130.378,33.142],[130.417,33.092],[130.414,33.077],[130.418,33.014],[130.415,33.001],[130.442,32.928],[130.471,32.901],[130.542,32.908],[130.53,32.85],[130.583,32.826],[130.621,32.782],[130.598,32.778],[130.627,32.711],[130.639,32.711],[130.579,32.704],[130.5,32.655],[130.468,32.605],[130.545,32.622],[130.624,32.632],[130.637,32.601],[130.623,32.587],[130.599,32.578],[130.596,32.569],[130.536,32.526],[130.631,32.496],[130.585,32.484],[130.571,32.435],[130.489,32.364],[130.483,32.345],[130.467,32.318],[130.467,32.296],[130.447,32.281],[130.429,32.262],[130.435,32.24],[130.41,32.231],[130.384,32.214],[130.376,32.183],[130.368,32.174],[130.345,32.133],[130.327,32.122],[130.265,32.128],[130.196,32.117],[130.183,32.071],[130.201,32.076],[130.191,32.027],[130.179,31.992],[130.191,31.986],[130.22,31.932],[130.203,31.868],[130.208,31.849],[130.256,31.83],[130.312,31.82],[130.197,31.843],[130.173,31.809],[130.189,31.758],[130.233,31.741],[130.257,31.716],[130.298,31.665],[130.335,31.576],[130.298,31.447],[130.296,31.442],[130.225,31.398],[130.187,31.41],[130.149,31.43],[130.106,31.414],[130.164,31.375],[130.208,31.349],[130.181,31.324],[130.221,31.3],[130.208,31.283],[130.223,31.274],[130.218,31.262],[130.234,31.255],[130.287,31.263],[130.325,31.257],[130.362,31.252],[130.401,31.252],[130.43,31.248],[130.471,31.247],[130.542,31.168],[130.606,31.183],[130.631,31.208],[130.666,31.266],[130.572,31.313],[130.538,31.391],[130.516,31.45],[130.531,31.47],[130.516,31.496],[130.537,31.496],[130.531,31.525],[130.548,31.543],[130.569,31.571],[130.563,31.591],[130.595,31.626],[130.609,31.679],[130.647,31.721],[130.73,31.71],[130.785,31.703],[130.821,31.65],[130.787,31.586],[130.717,31.558],[130.711,31.578],[130.709,31.611],[130.674,31.625],[130.602,31.596],[130.62,31.561],[130.673,31.549],[130.707,31.534],[130.699,31.462],[130.771,31.388],[130.784,31.367],[130.801,31.323],[130.789,31.265],[130.763,31.216],[130.752,31.147],[130.687,31.091],[130.676,31.061],[130.668,31.022],[130.668,31.002],[130.689,31.026],[130.713,31.037],[130.756,31.058],[130.802,31.084],[130.874,31.095],[130.916,31.114],[130.979,31.157],[131.001,31.188],[131.045,31.227],[131.117,31.268],[131.113,31.279],[131.092,31.305],[131.09,31.335],[131.013,31.357],[131.017,31.363],[131.055,31.445],[131.101,31.469],[131.12,31.475],[131.144,31.468],[131.179,31.45],[131.217,31.445],[131.245,31.42],[131.297,31.385],[131.335,31.381],[131.355,31.418],[131.363,31.472],[131.373,31.508],[131.38,31.533],[131.381,31.551],[131.402,31.58],[131.406,31.592],[131.451,31.621],[131.465,31.643],[131.452,31.681],[131.461,31.714],[131.472,31.758],[131.476,31.793],[131.449,31.834],[131.426,31.902],[131.402,31.952],[131.454,31.898],[131.47,31.927],[131.498,32.043],[131.453,32.053],[131.507,32.047],[131.552,32.182],[131.577,32.268],[131.621,32.341],[131.632,32.37],[131.643,32.408],[131.662,32.43],[131.662,32.44],[131.653,32.466],[131.67,32.48],[131.7,32.475],[131.724,32.489],[131.713,32.52],[131.697,32.511],[131.688,32.524],[131.688,32.584],[131.686,32.589],[131.703,32.613],[131.7,32.616],[131.744,32.594],[131.763,32.618],[131.764,32.645],[131.774,32.657],[131.785,32.664],[131.809,32.686],[131.827,32.705],[131.847,32.694],[131.854,32.703]],[[131.045,30.829],[131.004,30.786],[130.991,30.734],[130.963,30.693],[130.949,30.627],[130.91,30.513],[130.855,30.469],[130.866,30.4],[130.876,30.346],[130.93,30.373],[130.98,30.397],[130.968,30.424],[130.96,30.453],[130.98,30.51],[131.027,30.561],[131.033,30.588],[131.057,30.618],[131.064,30.677],[131.075,30.706],[131.072,30.769],[131.062,30.834],[131.045,30.829]],[[130.666,30.344],[130.599,30.41],[130.572,30.424],[130.543,30.447],[130.506,30.455],[130.491,30.457],[130.457,30.432],[130.425,30.402],[130.379,30.383],[130.395,30.318],[130.422,30.267],[130.45,30.235],[130.472,30.231],[130.525,30.228],[130.559,30.235],[130.607,30.259],[130.656,30.313],[130.666,30.344]],[[130.024,32.15],[130.047,32.158],[130.032,32.19],[130.032,32.215],[130.063,32.211],[130.078,32.228],[130.086,32.233],[130.096,32.254],[130.166,32.296],[130.14,32.299],[130.157,32.33],[130.168,32.317],[130.208,32.346],[130.224,32.384],[130.201,32.406],[130.211,32.43],[130.244,32.407],[130.271,32.411],[130.315,32.397],[130.355,32.407],[130.37,32.388],[130.401,32.397],[130.416,32.431],[130.437,32.468],[130.458,32.526],[130.424,32.52],[130.391,32.507],[130.383,32.524],[130.369,32.525],[130.341,32.514],[130.288,32.487],[130.217,32.457],[130.206,32.48],[130.199,32.536],[130.124,32.548],[130.118,32.549],[130.055,32.515],[130.039,32.525],[130.031,32.521],[130.036,32.471],[130.003,32.403],[129.979,32.366],[129.977,32.329],[129.999,32.305],[130.027,32.307],[130.078,32.315],[130.053,32.279],[130.031,32.297],[130.026,32.288],[129.991,32.279],[129.989,32.239],[130.015,32.227],[129.994,32.202],[130.013,32.196],[130.016,32.168],[130.024,32.15]],[[129.273,28.199],[129.282,28.197],[129.288,28.179],[129.297,28.16],[129.331,28.134],[129.362,28.132],[129.374,28.113],[129.37,28.135],[129.356,28.152],[129.363,28.167],[129.399,28.155],[129.406,28.184],[129.449,28.198],[129.47,28.212],[129.436,28.236],[129.438,28.245],[129.456,28.293],[129.511,28.299],[129.535,28.328],[129.589,28.364],[129.655,28.401],[129.71,28.421],[129.719,28.468],[129.698,28.487],[129.676,28.526],[129.664,28.477],[129.668,28.454],[129.651,28.468],[129.65,28.428],[129.621,28.418],[129.621,28.45],[129.594,28.418],[129.612,28.461],[129.603,28.475],[129.556,28.45],[129.519,28.439],[129.515,28.399],[129.491,28.412],[129.452,28.393],[129.412,28.387],[129.404,28.358],[129.373,28.359],[129.318,28.348],[129.287,28.329],[129.246,28.313],[129.22,28.294],[129.265,28.276],[129.294,28.283],[129.269,28.267],[129.248,28.262],[129.215,28.259],[129.166,28.259],[129.152,28.24],[129.178,28.224],[129.229,28.219],[129.253,28.221],[129.272,28.228],[129.272,28.216],[129.288,28.219],[129.273,28.199]],[[129.214,34.084],[129.231,34.102],[129.241,34.102],[129.281,34.13],[129.284,34.164],[129.292,34.191],[129.302,34.208],[129.326,34.23],[129.327,34.263],[129.354,34.277],[129.374,34.281],[129.372,34.301],[129.373,34.297],[129.371,34.316],[129.377,34.32],[129.371,34.333],[129.396,34.337],[129.409,34.353],[129.406,34.354],[129.381,34.343],[129.39,34.368],[129.382,34.388],[129.399,34.413],[129.379,34.398],[129.362,34.397],[129.377,34.407],[129.371,34.423],[129.375,34.433],[129.381,34.438],[129.373,34.455],[129.393,34.473],[129.439,34.513],[129.464,34.544],[129.47,34.563],[129.471,34.601],[129.44,34.613],[129.458,34.612],[129.453,34.624],[129.479,34.622],[129.482,34.632],[129.476,34.652],[129.498,34.67],[129.48,34.676],[129.482,34.693],[129.452,34.699],[129.44,34.698],[129.414,34.689],[129.432,34.675],[129.4,34.669],[129.393,34.64],[129.336,34.641],[129.313,34.615],[129.289,34.555],[129.315,34.556],[129.333,34.529],[129.314,34.518],[129.292,34.487],[129.275,34.456],[129.309,34.461],[129.296,34.448],[129.275,34.438],[129.274,34.404],[129.259,34.366],[129.236,34.365],[129.27,34.354],[129.29,34.354],[129.287,34.365],[129.291,34.376],[129.31,34.381],[129.31,34.357],[129.318,34.347],[129.333,34.372],[129.341,34.356],[129.349,34.348],[129.343,34.337],[129.344,34.324],[129.329,34.329],[129.298,34.337],[129.313,34.316],[129.33,34.307],[129.356,34.308],[129.338,34.297],[129.315,34.293],[129.299,34.286],[129.299,34.304],[129.281,34.323],[129.275,34.317],[129.286,34.285],[129.263,34.296],[129.251,34.306],[129.226,34.296],[129.217,34.327],[129.198,34.282],[129.183,34.229],[129.175,34.158],[129.173,34.105],[129.21,34.108],[129.214,34.084]],[[129.021,32.933],[129.032,32.932],[129.062,32.906],[129.052,32.907],[129.042,32.895],[129.056,32.884],[129.042,32.886],[129.045,32.872],[129.047,32.855],[129.043,32.823],[129.061,32.846],[129.096,32.858],[129.09,32.885],[129.097,32.915],[129.107,32.933],[129.11,32.951],[129.161,32.961],[129.183,33.001],[129.16,33.001],[129.118,32.989],[129.096,32.982],[129.094,33.007],[129.1,33.047],[129.114,33.081],[129.103,33.124],[129.1,33.133],[129.109,33.101],[129.081,33.052],[129.07,33.02],[129.042,33.028],[129.054,32.981],[129.052,32.964],[129.03,32.961],[129.012,32.977],[128.999,32.948],[129.015,32.949],[129.021,32.933]],[[128.78,32.585],[128.772,32.617],[128.782,32.645],[128.817,32.646],[128.873,32.638],[128.872,32.679],[128.847,32.703],[128.842,32.741],[128.835,32.746],[128.827,32.757],[128.825,32.756],[128.809,32.792],[128.786,32.775],[128.797,32.756],[128.77,32.74],[128.752,32.759],[128.737,32.746],[128.716,32.75],[128.697,32.744],[128.666,32.781],[128.646,32.751],[128.658,32.706],[128.649,32.682],[128.672,32.669],[128.657,32.652],[128.645,32.647],[128.636,32.628],[128.661,32.628],[128.647,32.61],[128.626,32.627],[128.61,32.641],[128.604,32.612],[128.653,32.59],[128.695,32.603],[128.753,32.578],[128.78,32.585]],[[127.687,26.082],[127.758,26.123],[127.82,26.157],[127.815,26.191],[127.777,26.191],[127.79,26.229],[127.816,26.277],[127.83,26.313],[127.858,26.327],[127.908,26.302],[127.912,26.326],[127.982,26.356],[127.994,26.37],[127.969,26.367],[127.903,26.332],[127.878,26.375],[127.831,26.418],[127.852,26.45],[127.929,26.439],[127.951,26.467],[127.999,26.48],[128.026,26.511],[128.041,26.542],[128.079,26.543],[128.109,26.55],[128.136,26.588],[128.146,26.626],[128.225,26.629],[128.256,26.658],[128.288,26.696],[128.307,26.729],[128.324,26.754],[128.32,26.79],[128.319,26.813],[128.3,26.847],[128.264,26.871],[128.253,26.843],[128.211,26.778],[128.153,26.745],[128.118,26.704],[128.123,26.665],[128.102,26.664],[128.049,26.635],[127.992,26.646],[128.008,26.683],[127.972,26.696],[127.95,26.709],[127.877,26.712],[127.896,26.661],[127.895,26.606],[127.957,26.595],[127.974,26.558],[127.958,26.546],[127.93,26.533],[127.891,26.507],[127.859,26.509],[127.825,26.468],[127.782,26.436],[127.711,26.44],[127.741,26.363],[127.76,26.308],[127.72,26.272],[127.684,26.245],[127.672,26.235],[127.681,26.228],[127.662,26.211],[127.644,26.177],[127.654,26.164],[127.649,26.134],[127.661,26.136],[127.66,26.116],[127.687,26.082]],[[124.125,24.47],[124.082,24.453],[124.077,24.426],[124.111,24.432],[124.134,24.415],[124.112,24.368],[124.15,24.331],[124.201,24.354],[124.254,24.379],[124.251,24.454],[124.299,24.519],[124.338,24.577],[124.312,24.609],[124.293,24.54],[124.234,24.498],[124.217,24.456],[124.142,24.443],[124.113,24.477],[124.125,24.47]],[[123.881,24.256],[123.881,24.281],[123.902,24.307],[123.926,24.327],[123.917,24.377],[123.873,24.404],[123.822,24.392],[123.799,24.424],[123.766,24.434],[123.781,24.399],[123.746,24.392],[123.75,24.371],[123.76,24.338],[123.747,24.33],[123.748,24.312],[123.73,24.341],[123.703,24.35],[123.703,24.322],[123.67,24.314],[123.72,24.291],[123.805,24.269],[123.881,24.256]]]]}},{"type":"Feature","properties":{"mrgid":48950,"geoname":"Overlapping claim Kuril Islands: Japan / Russia","pol_type":"Overlapping claim","sovereigns":["Japan","Russia"],"area_km2":213723},"geometry":{"type":"MultiPolygon","coordinates":[[[[151.038,42.404],[151.004,42.354],[150.984,42.326],[150.966,42.301],[150.954,42.283],[150.928,42.249],[150.88,42.187],[150.844,42.142],[150.803,42.093],[150.743,42.024],[150.688,41.964],[150.632,41.905],[150.575,41.848],[150.515,41.79],[150.454,41.734],[150.399,41.685],[150.357,41.648],[150.301,41.602],[150.24,41.553],[150.172,41.501],[150.103,41.45],[150.033,41.4],[149.963,41.352],[149.89,41.305],[149.833,41.268],[149.778,41.235],[149.728,41.205],[149.702,41.19],[149.681,41.178],[149.661,41.167],[149.648,41.159],[149.635,41.152],[149.623,41.144],[149.61,41.137],[149.597,41.129],[149.547,41.101],[149.478,41.063],[149.401,41.022],[149.327,40.985],[149.253,40.948],[149.177,40.913],[149.104,40.88],[149.044,40.854],[149.013,40.835],[148.985,40.818],[148.914,40.777],[148.843,40.737],[148.765,40.695],[148.687,40.655],[148.607,40.615],[148.534,40.581],[148.454,40.544],[148.376,40.51],[148.325,40.489],[148.245,40.457],[148.16,40.425],[148.074,40.394],[147.991,40.365],[147.904,40.337],[147.413,40.954],[145.969,43.089],[145.885,43.298],[145.858,43.354],[145.837,43.421],[145.534,43.509],[145.316,43.692],[145.257,43.873],[145.408,44.019],[145.519,44.129],[145.634,44.343],[145.412,45.223],[145.932,46.319],[147.496,47.601],[148.155,47.205],[148.889,46.183],[149.107,45.712],[149.477,45.029],[151.038,42.404]],[[145.555,43.682],[145.576,43.842],[145.676,43.905],[145.784,43.944],[145.808,44.006],[145.868,44.027],[145.889,44.088],[145.929,44.139],[146.001,44.171],[146.046,44.193],[146.066,44.232],[146.197,44.269],[146.28,44.274],[146.329,44.298],[146.366,44.338],[146.485,44.355],[146.535,44.395],[146.486,44.422],[146.447,44.391],[146.366,44.417],[146.272,44.444],[146.231,44.473],[146.159,44.512],[146.071,44.452],[146.018,44.389],[145.979,44.31],[145.877,44.234],[145.766,44.121],[145.742,44.056],[145.655,44.004],[145.59,43.951],[145.533,43.92],[145.421,43.845],[145.425,43.767],[145.435,43.721],[145.547,43.732],[145.537,43.678],[145.555,43.682]],[[146.897,44.52],[146.867,44.471],[146.921,44.429],[146.991,44.451],[147.043,44.533],[147.145,44.559],[147.206,44.571],[147.273,44.646],[147.331,44.707],[147.368,44.727],[147.451,44.775],[147.552,44.816],[147.606,44.874],[147.613,44.951],[147.706,45.006],[147.814,44.952],[147.905,44.961],[147.966,45.0],[148.026,45.048],[148.075,45.087],[148.164,45.146],[148.235,45.181],[148.324,45.222],[148.414,45.241],[148.485,45.261],[148.522,45.284],[148.597,45.32],[148.686,45.336],[148.742,45.337],[148.843,45.35],[148.872,45.401],[148.89,45.485],[148.854,45.541],[148.711,45.542],[148.645,45.527],[148.608,45.491],[148.55,45.457],[148.484,45.417],[148.456,45.37],[148.423,45.32],[148.417,45.326],[148.355,45.307],[148.163,45.258],[148.022,45.279],[148.008,45.311],[147.992,45.343],[147.966,45.395],[147.929,45.435],[147.85,45.362],[147.869,45.285],[147.859,45.217],[147.805,45.211],[147.731,45.189],[147.691,45.138],[147.655,45.081],[147.569,45.096],[147.505,45.115],[147.531,45.081],[147.515,45.021],[147.479,44.983],[147.427,44.948],[147.334,44.889],[147.266,44.868],[147.173,44.817],[147.1,44.816],[147.174,44.763],[147.159,44.677],[147.076,44.636],[147.045,44.66],[147.016,44.645],[146.983,44.576],[146.947,44.629],[146.953,44.556],[146.935,44.533],[146.897,44.52]],[[146.818,43.885],[146.806,43.871],[146.803,43.861],[146.721,43.845],[146.712,43.831],[146.65,43.823],[146.591,43.789],[146.604,43.763],[146.598,43.744],[146.605,43.735],[146.644,43.761],[146.619,43.736],[146.649,43.711],[146.677,43.713],[146.71,43.739],[146.751,43.753],[146.786,43.756],[146.793,43.781],[146.849,43.786],[146.835,43.805],[146.865,43.81],[146.901,43.826],[146.914,43.845],[146.865,43.873],[146.824,43.89],[146.818,43.885]]]]}},{"type":"Feature","properties":{"mrgid":48954,"geoname":"Overlapping claim Senkaku Islands: Taiwan / Japan / China","pol_type":"Overlapping claim","sovereigns":["Taiwan","Japan","China"],"area_km2":73794},"geometry":{"type":"MultiPolygon","coordinates":[[[[122.875,25.215],[122.764,25.705],[123.068,27.311],[123.514,27.577],[124.559,28.112],[125.528,26.569],[124.692,25.359],[123.262,25.098],[122.875,25.215]]]]}},{"type":"Feature","properties":{"mrgid":21796,"geoname":"Joint regime area: South Korea / Japan","pol_type":"Joint regime","sovereigns":["South Korea","Japan"],"area_km2":82610},"geometry":{"type":"MultiPolygon","coordinates":[[[[126.092,30.303],[126.092,30.303],[126.013,30.555],[125.925,30.77],[126.858,32.175],[127.218,32.56],[127.463,32.77],[127.605,32.89],[127.685,32.95],[127.698,32.95],[128.3,32.95],[128.3,32.45],[127.933,32.45],[127.833,32.2],[128.233,31.783],[128.833,31.783],[128.833,31.217],[129.067,30.9],[129.15,30.317],[128.633,29.717],[128,29.317],[127.633,28.6],[126.092,30.303]]]]}},{"type":"Feature","properties":{"mrgid":48955,"geoname":"Overlapping claim Liancourt Rocks: Japan / South Korea","pol_type":"Overlapping claim","sovereigns":["Japan","South Korea"],"area_km2":1624},"geometry":{"type":"MultiPolygon","coordinates":[[[[131.877,37.037],[131.871,37.037],[131.86,37.037],[131.849,37.038],[131.838,37.039],[131.828,37.04],[131.822,37.041],[131.811,37.043],[131.8,37.045],[131.79,37.048],[131.783,37.05],[131.773,37.053],[131.763,37.056],[131.754,37.06],[131.744,37.064],[131.739,37.066],[131.732,37.07],[131.724,37.074],[131.715,37.078],[131.707,37.083],[131.701,37.087],[131.695,37.091],[131.687,37.097],[131.679,37.104],[131.672,37.11],[131.668,37.114],[131.661,37.12],[131.655,37.128],[131.649,37.135],[131.644,37.141],[131.64,37.147],[131.635,37.155],[131.631,37.163],[131.626,37.171],[131.625,37.175],[131.621,37.184],[131.618,37.192],[131.616,37.201],[131.614,37.207],[131.613,37.214],[131.612,37.223],[131.611,37.231],[131.61,37.24],[131.61,37.245],[131.611,37.254],[131.612,37.262],[131.613,37.271],[131.614,37.277],[131.616,37.285],[131.619,37.293],[131.622,37.301],[131.624,37.309],[131.627,37.316],[131.63,37.322],[131.635,37.33],[131.639,37.338],[131.645,37.346],[131.648,37.35],[131.653,37.357],[131.66,37.364],[131.666,37.371],[131.671,37.376],[131.677,37.382],[131.685,37.388],[131.693,37.394],[131.7,37.4],[131.705,37.403],[131.71,37.406],[131.714,37.408],[131.719,37.411],[131.731,37.418],[131.739,37.421],[131.747,37.425],[131.757,37.429],[131.767,37.433],[131.777,37.436],[131.784,37.438],[131.794,37.44],[131.805,37.442],[131.816,37.444],[131.822,37.445],[131.83,37.446],[131.84,37.447],[131.851,37.448],[131.862,37.448],[131.868,37.448],[131.879,37.448],[131.89,37.447],[131.901,37.446],[131.908,37.445],[131.917,37.443],[131.928,37.441],[131.939,37.439],[131.949,37.436],[131.954,37.435],[131.965,37.431],[131.975,37.428],[131.984,37.424],[131.991,37.421],[132.0,37.416],[132.009,37.411],[132.016,37.407],[132.024,37.402],[132.029,37.399],[132.037,37.393],[132.045,37.387],[132.052,37.38],[132.06,37.373],[132.065,37.369],[132.071,37.362],[132.078,37.355],[132.084,37.348],[132.088,37.341],[132.094,37.334],[132.1,37.323],[132.104,37.316],[132.108,37.308],[132.111,37.301],[132.114,37.293],[132.116,37.284],[132.119,37.276],[132.12,37.271],[132.121,37.262],[132.122,37.254],[132.123,37.245],[132.123,37.239],[132.122,37.231],[132.122,37.223],[132.121,37.214],[132.119,37.206],[132.118,37.201],[132.116,37.192],[132.113,37.184],[132.109,37.175],[132.107,37.17],[132.103,37.162],[132.099,37.154],[132.094,37.146],[132.089,37.14],[132.083,37.132],[132.072,37.119],[132.066,37.113],[132.062,37.109],[132.058,37.105],[132.05,37.098],[132.043,37.092],[132.034,37.086],[132.03,37.083],[132.021,37.078],[132.012,37.073],[132.003,37.068],[131.996,37.064],[131.991,37.062],[131.986,37.06],[131.983,37.059],[131.975,37.056],[131.96,37.051],[131.953,37.049],[131.943,37.046],[131.932,37.043],[131.922,37.041],[131.913,37.04],[131.904,37.039],[131.893,37.038],[131.883,37.037],[131.877,37.037]]]]}}]}